{"type":"FeatureCollection","features":[{"type":"Feature","properties":{"id":"cn:31","name":"上海市","level":0},"geometry":{"type":"MultiPolygon","coordinates":[[[[120.852612,31.105062],[120.853724,31.110753],[120.86454,31.119505],[120.868177,31.129399],[120.877135,31.136968],[120.902256,31.136532],[120.926172,31.143653],[120.979609,31.133845],[121.014062,31.136128],[121.022266,31.145768],[121.031632,31.142309],[121.031771,31.139353],[121.036267,31.139555],[121.04026,31.147483],[121.036971,31.151782],[121.040903,31.155979],[121.044601,31.156549],[121.047353,31.152419],[121.057994,31.155039],[121.064548,31.150606],[121.063204,31.154199],[121.072439,31.160345],[121.072205,31.164509],[121.068542,31.165147],[121.072708,31.167902],[121.07088,31.172202],[121.067335,31.172402],[121.070842,31.175327],[121.066641,31.183351],[121.0704,31.186263],[121.064175,31.186782],[121.0671,31.187841],[121.067604,31.195046],[121.062222,31.196849],[121.064635,31.198399],[121.058063,31.226542],[121.062803,31.234796],[121.056675,31.239696],[121.059331,31.24031],[121.059774,31.248001],[121.053119,31.248631],[121.056415,31.248359],[121.057891,31.26931],[121.077543,31.273368],[121.079939,31.277534],[121.076754,31.279088],[121.077812,31.282747],[121.084175,31.293898],[121.088967,31.291694],[121.094184,31.27807],[121.100824,31.275471],[121.099201,31.277146],[121.103846,31.282561],[121.115985,31.288973],[121.122599,31.283036],[121.140625,31.277146],[121.149644,31.278604],[121.156727,31.285861],[121.14671,31.293791],[121.146933,31.298223],[121.143203,31.300048],[121.146206,31.30087],[121.139184,31.311538],[121.134806,31.305062],[121.125338,31.304415],[121.122352,31.320401],[121.128958,31.328298],[121.125217,31.336914],[121.125825,31.346016],[121.11335,31.345247],[121.1127,31.348921],[121.115572,31.349366],[121.11335,31.3532],[121.103698,31.352434],[121.102647,31.357038],[121.101935,31.368629],[121.105816,31.366429],[121.11559,31.370462],[121.109123,31.376235],[121.143846,31.387226],[121.139228,31.394139],[121.144878,31.396317],[121.143064,31.399144],[121.148151,31.399991],[121.144479,31.402131],[121.148516,31.407663],[121.154809,31.407621],[121.154288,31.411942],[121.144314,31.417673],[121.141649,31.422882],[121.159739,31.42906],[121.159774,31.432895],[121.158568,31.430835],[121.158142,31.434047],[121.143229,31.437992],[121.142743,31.445733],[121.156345,31.451506],[121.176285,31.453322],[121.181536,31.456228],[121.181537,31.462688],[121.18879,31.469208],[121.198411,31.471248],[121.209323,31.48082],[121.209167,31.477849],[121.2146,31.477142],[121.225903,31.479362],[121.224427,31.484869],[121.230955,31.490033],[121.230781,31.495052],[121.237448,31.495226],[121.239956,31.483117],[121.243726,31.483816],[121.242622,31.478999],[121.248915,31.481745],[121.24998,31.485687],[121.250347,31.479579],[121.254983,31.479886],[121.264418,31.489396],[121.267587,31.486265],[121.276163,31.492643],[121.283393,31.490865],[121.286137,31.493611],[121.294106,31.493417],[121.293055,31.496006],[121.297995,31.500342],[121.295434,31.501658],[121.301024,31.507226],[121.305833,31.507797],[121.308897,31.502626],[121.312118,31.507641],[121.315624,31.507745],[121.315364,31.501586],[121.317969,31.501224],[121.319965,31.506031],[121.338906,31.513876],[121.3637,31.506138],[121.400756,31.488971],[121.399661,31.480965],[121.476812,31.429176],[121.501556,31.408978],[121.502789,31.411683],[121.496782,31.414766],[121.512838,31.408295],[121.505,31.41026],[121.502918,31.407893],[121.516847,31.396794],[121.594731,31.376752],[121.724722,31.300284],[121.739366,31.285196],[121.80552,31.198991],[121.849184,31.15753],[121.919516,31.09825],[121.92158,31.088709],[121.958524,31.049511],[121.973368,31.018307],[121.986709,30.97062],[121.991996,30.937654],[121.992752,30.877134],[121.989731,30.865306],[121.981172,30.852975],[121.950599,30.828188],[121.951354,30.819507],[121.965561,30.791554],[121.93959,30.779515],[121.920529,30.809032],[121.911215,30.815323],[121.676926,30.820733],[121.644219,30.818593],[121.597161,30.807521],[121.512856,30.777702],[121.421763,30.732404],[121.402388,30.7202],[121.357336,30.681699],[121.342119,30.677797],[121.270261,30.679713],[121.266638,30.703331],[121.261475,30.711797],[121.267639,30.725547],[121.265252,30.729245],[121.267057,30.735022],[121.261337,30.736531],[121.249922,30.747398],[121.231129,30.75455],[121.221189,30.778854],[121.217717,30.779375],[121.213576,30.787207],[121.196615,30.786212],[121.195886,30.775851],[121.192508,30.775575],[121.18651,30.783293],[121.170182,30.774195],[121.166294,30.77926],[121.156224,30.775374],[121.156163,30.778737],[121.14816,30.781116],[121.122543,30.780805],[121.123573,30.812167],[121.132856,30.82712],[121.132856,30.83207],[121.129697,30.83059],[121.12704,30.838082],[121.113168,30.837367],[121.118967,30.849325],[121.117144,30.852047],[121.108576,30.856102],[121.100209,30.851381],[121.093134,30.859145],[121.075908,30.850804],[121.062453,30.850852],[121.055995,30.847275],[121.057517,30.839883],[121.042257,30.833222],[121.044392,30.827314],[121.035477,30.829371],[121.037239,30.826997],[121.033507,30.821521],[121.036841,30.823694],[121.040486,30.817669],[121.033446,30.816049],[121.025614,30.830722],[121.010018,30.838029],[120.999566,30.828791],[120.996411,30.831673],[120.990295,30.82378],[120.986623,30.824997],[120.988446,30.828416],[120.984853,30.830991],[120.988151,30.833858],[120.984827,30.834611],[120.985694,30.837016],[120.993429,30.846341],[121.010625,30.855811],[121.006606,30.858244],[121.011875,30.86505],[121.009583,30.866586],[121.013377,30.871567],[121.010429,30.87322],[121.01605,30.874054],[121.017474,30.877337],[121.013073,30.884904],[121.002757,30.885771],[121.004149,30.890329],[120.989106,30.891969],[120.9861,30.897811],[120.988497,30.904401],[120.994297,30.905612],[120.994375,30.908166],[120.99822,30.907059],[121.000216,30.911503],[120.994639,30.911752],[120.996476,30.939928],[120.991345,30.946541],[120.992396,30.952511],[120.987369,30.960427],[120.990434,30.960901],[120.987535,30.972714],[120.994774,30.975112],[120.998004,30.979794],[120.990504,30.997435],[120.986197,30.996745],[120.986102,31.015994],[120.958976,31.018852],[120.960625,31.021996],[120.956258,31.023923],[120.954089,31.030829],[120.948003,31.032528],[120.943993,31.030714],[120.946979,31.026294],[120.945782,31.019916],[120.93138,31.018833],[120.935625,31.011693],[120.913967,31.015115],[120.906883,31.01289],[120.90592,31.019271],[120.897222,31.019824],[120.897838,31.039957],[120.890425,31.056194],[120.895478,31.080651],[120.900885,31.081677],[120.897968,31.087945],[120.892552,31.08893],[120.888203,31.09977],[120.883333,31.09635],[120.874471,31.097684],[120.872474,31.102203],[120.861571,31.099872],[120.852612,31.105062]]],[[[121.113836,31.760838],[121.144601,31.789089],[121.167224,31.818473],[121.195799,31.837044],[121.261094,31.866076],[121.297369,31.874633],[121.311293,31.873376],[121.380356,31.835303],[121.406792,31.808102],[121.411608,31.799401],[121.406202,31.797338],[121.426805,31.771026],[121.459531,31.758962],[121.494062,31.755175],[121.508599,31.745654],[121.535069,31.737528],[121.560737,31.718788],[121.574279,31.712628],[121.595423,31.705229],[121.598511,31.70905],[121.629018,31.698253],[121.644214,31.697628],[121.644445,31.70757],[121.813498,31.654014],[121.970954,31.619041],[121.983984,31.531566],[121.989586,31.513846],[121.991435,31.495053],[121.98743,31.478726],[121.977572,31.466094],[121.913923,31.436814],[121.886415,31.430909],[121.853619,31.432126],[121.814887,31.440221],[121.678533,31.493081],[121.604566,31.509019],[121.543367,31.533177],[121.466597,31.57626],[121.429557,31.592096],[121.398836,31.591749],[121.390781,31.587185],[121.367561,31.554974],[121.284618,31.618188],[121.140703,31.755712],[121.113836,31.760838]]],[[[121.504436,31.489607],[121.512525,31.496274],[121.558081,31.488457],[121.563082,31.485599],[121.571579,31.465916],[121.581337,31.45679],[121.66954,31.429791],[121.692847,31.425994],[121.749332,31.402313],[121.769762,31.388947],[121.786532,31.369047],[121.791675,31.347621],[121.794442,31.312367],[121.792375,31.30937],[121.76302,31.315275],[121.745379,31.341033],[121.73638,31.348459],[121.568004,31.438177],[121.538958,31.464448],[121.505703,31.484528],[121.504436,31.489607]]],[[[122.237222,31.420582],[122.240981,31.42326],[122.242917,31.42127],[122.239158,31.419683],[122.237222,31.420582]]],[[[121.788459,31.379561],[121.792423,31.383067],[121.813159,31.38261],[121.841366,31.376663],[121.947577,31.339376],[122.03667,31.325678],[122.112205,31.323024],[122.11752,31.317234],[122.118226,31.309002],[122.100737,31.263946],[122.093301,31.257471],[122.082817,31.259358],[122.067543,31.268655],[122.012118,31.28424],[121.971579,31.28207],[121.928138,31.285306],[121.896643,31.293336],[121.861797,31.297073],[121.848685,31.294481],[121.82936,31.301731],[121.802334,31.326195],[121.798827,31.334124],[121.796235,31.365991],[121.788459,31.379561]]],[[[121.106747,31.287898],[121.105932,31.289313],[121.106931,31.289191],[121.106747,31.287898]]],[[[121.571357,31.478956],[121.572913,31.481446],[121.582665,31.481653],[121.604349,31.476569],[121.627381,31.458932],[121.631427,31.449906],[121.622816,31.447104],[121.60964,31.45001],[121.585467,31.463601],[121.571357,31.478956]]],[[[121.422656,30.682355],[121.422083,30.684325],[121.42415,30.683631],[121.422656,30.682355]]],[[[121.937699,31.209859],[121.942456,31.226526],[121.9469,31.23097],[121.976446,31.230173],[122.004267,31.222994],[122.008305,31.212001],[122.007706,31.194049],[121.991478,31.162868],[121.96151,31.159698],[121.955477,31.161445],[121.943889,31.178587],[121.937699,31.209859]]],[[[121.41415,30.693241],[121.421372,30.693618],[121.424323,30.691257],[121.420139,30.689609],[121.41415,30.693241]]],[[[121.876744,31.238509],[121.87849,31.243033],[121.885789,31.24478],[121.919444,31.23605],[121.923412,31.226208],[121.918333,31.199065],[121.909756,31.196048],[121.897535,31.203667],[121.881033,31.222717],[121.876744,31.238509]]],[[[121.404167,30.706218],[121.401962,30.707041],[121.404723,30.706982],[121.404167,30.706218]]],[[[121.519037,31.396342],[121.518938,31.396561],[121.519121,31.396483],[121.519037,31.396342]]]]}},{"type":"Feature","properties":{"id":"cn:3101","name":"上海市","level":1},"geometry":{"type":"MultiPolygon","coordinates":[[[[120.852612,31.105062],[120.853724,31.110753],[120.86454,31.119505],[120.868177,31.129399],[120.877135,31.136968],[120.902256,31.136532],[120.926172,31.143653],[120.979609,31.133845],[121.014062,31.136128],[121.022266,31.145768],[121.031632,31.142309],[121.031771,31.139353],[121.036267,31.139555],[121.04026,31.147483],[121.036971,31.151782],[121.040903,31.155979],[121.044601,31.156549],[121.047353,31.152419],[121.057994,31.155039],[121.064548,31.150606],[121.063204,31.154199],[121.072439,31.160345],[121.072205,31.164509],[121.068542,31.165147],[121.072708,31.167902],[121.07088,31.172202],[121.067335,31.172402],[121.070842,31.175327],[121.066641,31.183351],[121.0704,31.186263],[121.064175,31.186782],[121.0671,31.187841],[121.067604,31.195046],[121.062222,31.196849],[121.064635,31.198399],[121.058063,31.226542],[121.062803,31.234796],[121.056675,31.239696],[121.059331,31.24031],[121.059774,31.248001],[121.053119,31.248631],[121.056415,31.248359],[121.057891,31.26931],[121.077543,31.273368],[121.079939,31.277534],[121.076754,31.279088],[121.077812,31.282747],[121.084175,31.293898],[121.088967,31.291694],[121.094184,31.27807],[121.100824,31.275471],[121.099201,31.277146],[121.103846,31.282561],[121.115985,31.288973],[121.122599,31.283036],[121.140625,31.277146],[121.149644,31.278604],[121.156727,31.285861],[121.14671,31.293791],[121.146933,31.298223],[121.143203,31.300048],[121.146206,31.30087],[121.139184,31.311538],[121.134806,31.305062],[121.125338,31.304415],[121.122352,31.320401],[121.128958,31.328298],[121.125217,31.336914],[121.125825,31.346016],[121.11335,31.345247],[121.1127,31.348921],[121.115572,31.349366],[121.11335,31.3532],[121.103698,31.352434],[121.102647,31.357038],[121.101935,31.368629],[121.105816,31.366429],[121.11559,31.370462],[121.109123,31.376235],[121.143846,31.387226],[121.139228,31.394139],[121.144878,31.396317],[121.143064,31.399144],[121.148151,31.399991],[121.144479,31.402131],[121.148516,31.407663],[121.154809,31.407621],[121.154288,31.411942],[121.144314,31.417673],[121.141649,31.422882],[121.159739,31.42906],[121.159774,31.432895],[121.158568,31.430835],[121.158142,31.434047],[121.143229,31.437992],[121.142743,31.445733],[121.156345,31.451506],[121.176285,31.453322],[121.181536,31.456228],[121.181537,31.462688],[121.18879,31.469208],[121.198411,31.471248],[121.209323,31.48082],[121.209167,31.477849],[121.2146,31.477142],[121.225903,31.479362],[121.224427,31.484869],[121.230955,31.490033],[121.230781,31.495052],[121.237448,31.495226],[121.239956,31.483117],[121.243726,31.483816],[121.242622,31.478999],[121.248915,31.481745],[121.24998,31.485687],[121.250347,31.479579],[121.254983,31.479886],[121.264418,31.489396],[121.267587,31.486265],[121.276163,31.492643],[121.283393,31.490865],[121.286137,31.493611],[121.294106,31.493417],[121.293055,31.496006],[121.297995,31.500342],[121.295434,31.501658],[121.301024,31.507226],[121.305833,31.507797],[121.308897,31.502626],[121.312118,31.507641],[121.315624,31.507745],[121.315364,31.501586],[121.317969,31.501224],[121.319965,31.506031],[121.338906,31.513876],[121.3637,31.506138],[121.400756,31.488971],[121.399661,31.480965],[121.476812,31.429176],[121.501556,31.408978],[121.502789,31.411683],[121.496782,31.414766],[121.512838,31.408295],[121.505,31.41026],[121.502918,31.407893],[121.516847,31.396794],[121.594731,31.376752],[121.724722,31.300284],[121.739366,31.285196],[121.80552,31.198991],[121.849184,31.15753],[121.919516,31.09825],[121.92158,31.088709],[121.958524,31.049511],[121.973368,31.018307],[121.986709,30.97062],[121.991996,30.937654],[121.992752,30.877134],[121.989731,30.865306],[121.981172,30.852975],[121.950599,30.828188],[121.951354,30.819507],[121.965561,30.791554],[121.93959,30.779515],[121.920529,30.809032],[121.911215,30.815323],[121.676926,30.820733],[121.644219,30.818593],[121.597161,30.807521],[121.512856,30.777702],[121.421763,30.732404],[121.402388,30.7202],[121.357336,30.681699],[121.342119,30.677797],[121.270261,30.679713],[121.266638,30.703331],[121.261475,30.711797],[121.267639,30.725547],[121.265252,30.729245],[121.267057,30.735022],[121.261337,30.736531],[121.249922,30.747398],[121.231129,30.75455],[121.221189,30.778854],[121.217717,30.779375],[121.213576,30.787207],[121.196615,30.786212],[121.195886,30.775851],[121.192508,30.775575],[121.18651,30.783293],[121.170182,30.774195],[121.166294,30.77926],[121.156224,30.775374],[121.156163,30.778737],[121.14816,30.781116],[121.122543,30.780805],[121.123573,30.812167],[121.132856,30.82712],[121.132856,30.83207],[121.129697,30.83059],[121.12704,30.838082],[121.113168,30.837367],[121.118967,30.849325],[121.117144,30.852047],[121.108576,30.856102],[121.100209,30.851381],[121.093134,30.859145],[121.075908,30.850804],[121.062453,30.850852],[121.055995,30.847275],[121.057517,30.839883],[121.042257,30.833222],[121.044392,30.827314],[121.035477,30.829371],[121.037239,30.826997],[121.033507,30.821521],[121.036841,30.823694],[121.040486,30.817669],[121.033446,30.816049],[121.025614,30.830722],[121.010018,30.838029],[120.999566,30.828791],[120.996411,30.831673],[120.990295,30.82378],[120.986623,30.824997],[120.988446,30.828416],[120.984853,30.830991],[120.988151,30.833858],[120.984827,30.834611],[120.985694,30.837016],[120.993429,30.846341],[121.010625,30.855811],[121.006606,30.858244],[121.011875,30.86505],[121.009583,30.866586],[121.013377,30.871567],[121.010429,30.87322],[121.01605,30.874054],[121.017474,30.877337],[121.013073,30.884904],[121.002757,30.885771],[121.004149,30.890329],[120.989106,30.891969],[120.9861,30.897811],[120.988497,30.904401],[120.994297,30.905612],[120.994375,30.908166],[120.99822,30.907059],[121.000216,30.911503],[120.994639,30.911752],[120.996476,30.939928],[120.991345,30.946541],[120.992396,30.952511],[120.987369,30.960427],[120.990434,30.960901],[120.987535,30.972714],[120.994774,30.975112],[120.998004,30.979794],[120.990504,30.997435],[120.986197,30.996745],[120.986102,31.015994],[120.958976,31.018852],[120.960625,31.021996],[120.956258,31.023923],[120.954089,31.030829],[120.948003,31.032528],[120.943993,31.030714],[120.946979,31.026294],[120.945782,31.019916],[120.93138,31.018833],[120.935625,31.011693],[120.913967,31.015115],[120.906883,31.01289],[120.90592,31.019271],[120.897222,31.019824],[120.897838,31.039957],[120.890425,31.056194],[120.895478,31.080651],[120.900885,31.081677],[120.897968,31.087945],[120.892552,31.08893],[120.888203,31.09977],[120.883333,31.09635],[120.874471,31.097684],[120.872474,31.102203],[120.861571,31.099872],[120.852612,31.105062]]],[[[121.113836,31.760838],[121.144601,31.789089],[121.167224,31.818473],[121.195799,31.837044],[121.261094,31.866076],[121.297369,31.874633],[121.311293,31.873376],[121.380356,31.835303],[121.406792,31.808102],[121.411608,31.799401],[121.406202,31.797338],[121.426805,31.771026],[121.459531,31.758962],[121.494062,31.755175],[121.508599,31.745654],[121.535069,31.737528],[121.560737,31.718788],[121.574279,31.712628],[121.595423,31.705229],[121.598511,31.70905],[121.629018,31.698253],[121.644214,31.697628],[121.644445,31.70757],[121.813498,31.654014],[121.970954,31.619041],[121.983984,31.531566],[121.989586,31.513846],[121.991435,31.495053],[121.98743,31.478726],[121.977572,31.466094],[121.913923,31.436814],[121.886415,31.430909],[121.853619,31.432126],[121.814887,31.440221],[121.678533,31.493081],[121.604566,31.509019],[121.543367,31.533177],[121.466597,31.57626],[121.429557,31.592096],[121.398836,31.591749],[121.390781,31.587185],[121.367561,31.554974],[121.284618,31.618188],[121.140703,31.755712],[121.113836,31.760838]]],[[[121.504436,31.489607],[121.512525,31.496274],[121.558081,31.488457],[121.563082,31.485599],[121.571579,31.465916],[121.581337,31.45679],[121.66954,31.429791],[121.692847,31.425994],[121.749332,31.402313],[121.769762,31.388947],[121.786532,31.369047],[121.791675,31.347621],[121.794442,31.312367],[121.792375,31.30937],[121.76302,31.315275],[121.745379,31.341033],[121.73638,31.348459],[121.568004,31.438177],[121.538958,31.464448],[121.505703,31.484528],[121.504436,31.489607]]],[[[122.237222,31.420582],[122.240981,31.42326],[122.242917,31.42127],[122.239158,31.419683],[122.237222,31.420582]]],[[[121.788459,31.379561],[121.792423,31.383067],[121.813159,31.38261],[121.841366,31.376663],[121.947577,31.339376],[122.03667,31.325678],[122.112205,31.323024],[122.11752,31.317234],[122.118226,31.309002],[122.100737,31.263946],[122.093301,31.257471],[122.082817,31.259358],[122.067543,31.268655],[122.012118,31.28424],[121.971579,31.28207],[121.928138,31.285306],[121.896643,31.293336],[121.861797,31.297073],[121.848685,31.294481],[121.82936,31.301731],[121.802334,31.326195],[121.798827,31.334124],[121.796235,31.365991],[121.788459,31.379561]]],[[[121.106747,31.287898],[121.105932,31.289313],[121.106931,31.289191],[121.106747,31.287898]]],[[[121.571357,31.478956],[121.572913,31.481446],[121.582665,31.481653],[121.604349,31.476569],[121.627381,31.458932],[121.631427,31.449906],[121.622816,31.447104],[121.60964,31.45001],[121.585467,31.463601],[121.571357,31.478956]]],[[[121.422656,30.682355],[121.422083,30.684325],[121.42415,30.683631],[121.422656,30.682355]]],[[[121.937699,31.209859],[121.942456,31.226526],[121.9469,31.23097],[121.976446,31.230173],[122.004267,31.222994],[122.008305,31.212001],[122.007706,31.194049],[121.991478,31.162868],[121.96151,31.159698],[121.955477,31.161445],[121.943889,31.178587],[121.937699,31.209859]]],[[[121.41415,30.693241],[121.421372,30.693618],[121.424323,30.691257],[121.420139,30.689609],[121.41415,30.693241]]],[[[121.876744,31.238509],[121.87849,31.243033],[121.885789,31.24478],[121.919444,31.23605],[121.923412,31.226208],[121.918333,31.199065],[121.909756,31.196048],[121.897535,31.203667],[121.881033,31.222717],[121.876744,31.238509]]],[[[121.404167,30.706218],[121.401962,30.707041],[121.404723,30.706982],[121.404167,30.706218]]],[[[121.519037,31.396342],[121.518938,31.396561],[121.519121,31.396483],[121.519037,31.396342]]]]}},{"type":"Feature","properties":{"id":"cn:310101","name":"黄浦区","level":2},"geometry":{"type":"Polygon","coordinates":[[[121.45217,31.22579],[121.462991,31.226009],[121.458402,31.243299],[121.475807,31.242049],[121.483316,31.246152],[121.490365,31.244193],[121.489879,31.23653],[121.502298,31.225167],[121.505495,31.216545],[121.49151,31.195822],[121.471458,31.189844],[121.465799,31.193239],[121.462312,31.206186],[121.4577,31.205087],[121.45217,31.22579]]]}},{"type":"Feature","properties":{"id":"cn:310104","name":"徐汇区","level":2},"geometry":{"type":"Polygon","coordinates":[[[121.386867,31.17056],[121.38941,31.171361],[121.389804,31.179742],[121.410512,31.185254],[121.407923,31.192972],[121.416111,31.192936],[121.419155,31.199167],[121.433304,31.20584],[121.430594,31.212983],[121.434842,31.216348],[121.453103,31.22209],[121.4577,31.205087],[121.462312,31.206186],[121.465799,31.193239],[121.471458,31.189844],[121.461693,31.183023],[121.460348,31.17734],[121.464757,31.162206],[121.452882,31.148383],[121.45441,31.141296],[121.465139,31.126834],[121.458298,31.103924],[121.448038,31.103176],[121.441676,31.107671],[121.447778,31.110534],[121.446218,31.117338],[121.431423,31.115139],[121.434321,31.121577],[121.431885,31.130956],[121.416884,31.129023],[121.400304,31.158563],[121.392289,31.154586],[121.39124,31.157673],[121.39993,31.15946],[121.397995,31.164099],[121.38993,31.161478],[121.386867,31.17056]]]}},{"type":"Feature","properties":{"id":"cn:310105","name":"长宁区","level":2},"geometry":{"type":"Polygon","coordinates":[[[121.327266,31.191573],[121.333499,31.194549],[121.334809,31.218529],[121.341059,31.225436],[121.336233,31.226465],[121.340807,31.232294],[121.333793,31.239438],[121.341007,31.241782],[121.340043,31.245451],[121.341459,31.245876],[121.34224,31.242938],[121.344896,31.245445],[121.344158,31.241261],[121.349097,31.239709],[121.356649,31.22824],[121.368915,31.2217],[121.394497,31.220134],[121.410738,31.22574],[121.410304,31.230334],[121.415295,31.227037],[121.421793,31.231311],[121.424393,31.224939],[121.430781,31.226924],[121.434842,31.216348],[121.430594,31.212983],[121.433304,31.20584],[121.419155,31.199167],[121.415625,31.192778],[121.381877,31.193184],[121.353724,31.187915],[121.352361,31.184668],[121.34684,31.18541],[121.337343,31.179715],[121.327266,31.191573]]]}},{"type":"Feature","properties":{"id":"cn:310106","name":"静安区","level":2},"geometry":{"type":"Polygon","coordinates":[[[121.413993,31.294067],[121.415381,31.298722],[121.422291,31.300345],[121.42178,31.305015],[121.426652,31.305451],[121.427526,31.3135],[121.429982,31.314114],[121.428959,31.32268],[121.442101,31.321645],[121.443273,31.318938],[121.452543,31.322851],[121.463584,31.322119],[121.463116,31.308186],[121.458957,31.307875],[121.459956,31.299871],[121.455468,31.291781],[121.456884,31.280804],[121.475976,31.260504],[121.475069,31.251746],[121.478481,31.243869],[121.465009,31.241129],[121.458402,31.243299],[121.462904,31.225782],[121.45217,31.22579],[121.453103,31.22209],[121.434681,31.216275],[121.430781,31.226924],[121.423073,31.226072],[121.42637,31.236948],[121.445391,31.245164],[121.446441,31.258129],[121.438099,31.269227],[121.425197,31.276753],[121.420399,31.272678],[121.419151,31.292871],[121.413993,31.294067]]]}},{"type":"Feature","properties":{"id":"cn:310107","name":"普陀区","level":2},"geometry":{"type":"Polygon","coordinates":[[[121.321536,31.289203],[121.329471,31.296227],[121.336449,31.295605],[121.336362,31.299316],[121.343953,31.298401],[121.344409,31.302194],[121.356858,31.304729],[121.358923,31.304578],[121.353984,31.295317],[121.365043,31.290953],[121.376892,31.291256],[121.378559,31.295692],[121.390103,31.296486],[121.388837,31.29309],[121.399792,31.288031],[121.395885,31.279188],[121.40184,31.278671],[121.400788,31.274878],[121.406306,31.274995],[121.411068,31.267727],[121.414852,31.267061],[121.425197,31.276753],[121.438099,31.269227],[121.446441,31.258129],[121.445391,31.245164],[121.42637,31.236948],[121.416189,31.227261],[121.410304,31.230334],[121.410738,31.22574],[121.394497,31.220134],[121.368915,31.2217],[121.356649,31.22824],[121.349592,31.239006],[121.351474,31.242035],[121.359062,31.24133],[121.363763,31.249241],[121.371117,31.246295],[121.376253,31.259599],[121.361267,31.259541],[121.354314,31.265471],[121.355243,31.268858],[121.362375,31.268516],[121.362821,31.271484],[121.333706,31.274737],[121.328186,31.287971],[121.324452,31.28651],[121.321536,31.289203]]]}},{"type":"Feature","properties":{"id":"cn:310109","name":"虹口区","level":2},"geometry":{"type":"Polygon","coordinates":[[[121.455468,31.291781],[121.459956,31.299871],[121.458957,31.307875],[121.463116,31.308186],[121.463749,31.317915],[121.48086,31.316557],[121.481041,31.305792],[121.485683,31.294548],[121.49684,31.296612],[121.498267,31.291645],[121.492017,31.286445],[121.492102,31.278376],[121.502083,31.272599],[121.5025,31.266868],[121.513265,31.253889],[121.512101,31.248998],[121.478481,31.243869],[121.475069,31.251746],[121.475976,31.260504],[121.458266,31.277273],[121.455468,31.291781]]]}},{"type":"Feature","properties":{"id":"cn:310110","name":"杨浦区","level":2},"geometry":{"type":"Polygon","coordinates":[[[121.485683,31.294548],[121.480901,31.313505],[121.492248,31.31345],[121.491753,31.325302],[121.494488,31.327598],[121.489106,31.332415],[121.501241,31.347827],[121.513238,31.342787],[121.52112,31.348832],[121.541285,31.341421],[121.556224,31.329928],[121.5575,31.305473],[121.564904,31.287404],[121.56427,31.277858],[121.554817,31.266365],[121.537231,31.253945],[121.512101,31.248998],[121.513265,31.253889],[121.5025,31.266868],[121.502083,31.272599],[121.492102,31.278376],[121.492017,31.286445],[121.498267,31.291645],[121.49684,31.296612],[121.485683,31.294548]]]}},{"type":"Feature","properties":{"id":"cn:310112","name":"闵行区","level":2},"geometry":{"type":"Polygon","coordinates":[[[121.235503,31.243079],[121.237248,31.24936],[121.249974,31.261637],[121.259548,31.261163],[121.263342,31.253512],[121.26408,31.256169],[121.279774,31.25383],[121.277144,31.249789],[121.282596,31.245695],[121.287726,31.235147],[121.292457,31.233035],[121.310886,31.229167],[121.329331,31.233925],[121.333793,31.239438],[121.337343,31.237304],[121.340797,31.229792],[121.336233,31.226465],[121.341059,31.225436],[121.334809,31.218529],[121.333499,31.194549],[121.327266,31.191573],[121.337188,31.179728],[121.34684,31.18541],[121.352361,31.184668],[121.353724,31.187915],[121.375528,31.192076],[121.407923,31.192972],[121.410512,31.185254],[121.389804,31.179742],[121.38941,31.171361],[121.386867,31.17056],[121.38993,31.161478],[121.397995,31.164099],[121.39993,31.15946],[121.39124,31.157673],[121.392289,31.154586],[121.400304,31.158563],[121.416884,31.129023],[121.431885,31.130956],[121.434321,31.121577],[121.431423,31.115139],[121.447075,31.116949],[121.447778,31.110534],[121.441554,31.108499],[121.448038,31.103176],[121.458298,31.103924],[121.460651,31.114065],[121.467023,31.112179],[121.47,31.116426],[121.472579,31.111365],[121.476857,31.112711],[121.472934,31.119329],[121.48164,31.126654],[121.485799,31.126309],[121.488342,31.120754],[121.494688,31.123194],[121.497144,31.11673],[121.505339,31.123542],[121.51013,31.117385],[121.527092,31.120575],[121.533576,31.116155],[121.537951,31.118339],[121.541493,31.112075],[121.546155,31.113824],[121.54494,31.115621],[121.553924,31.115645],[121.55362,31.111169],[121.563038,31.095874],[121.547344,31.092344],[121.544271,31.089099],[121.546294,31.085054],[121.549297,31.082526],[121.556823,31.085963],[121.571232,31.083023],[121.548525,31.07174],[121.5525,31.069608],[121.542925,31.063876],[121.541755,31.049422],[121.550486,31.053069],[121.557261,31.045456],[121.554158,31.026795],[121.54712,31.023013],[121.551594,31.020799],[121.556033,31.0264],[121.558125,31.026813],[121.561988,31.02342],[121.564167,31.027572],[121.568298,31.028676],[121.570512,31.022613],[121.565608,31.014744],[121.561016,31.013795],[121.565512,31.012897],[121.567248,31.007936],[121.563742,31.003179],[121.566259,31.000656],[121.548298,30.996936],[121.547136,30.990235],[121.54073,30.996285],[121.533941,30.995387],[121.515963,31.001541],[121.517891,31.005158],[121.512639,31.009804],[121.491771,31.000091],[121.488429,31.01485],[121.484687,31.017042],[121.436207,31.007765],[121.412969,30.994359],[121.346701,30.978014],[121.322856,30.98273],[121.322474,30.997266],[121.339696,31.015955],[121.32845,31.016271],[121.331189,31.064952],[121.336909,31.064755],[121.338897,31.061131],[121.348863,31.063263],[121.353611,31.066012],[121.352691,31.068731],[121.359149,31.070308],[121.357518,31.074557],[121.36088,31.079844],[121.367412,31.081811],[121.366371,31.085206],[121.35816,31.101708],[121.346592,31.101337],[121.343968,31.108619],[121.348712,31.1089],[121.352293,31.113114],[121.342182,31.12361],[121.340116,31.132289],[121.332552,31.139465],[121.334241,31.142285],[121.324496,31.15839],[121.313067,31.160253],[121.319314,31.165204],[121.299399,31.19712],[121.290191,31.205172],[121.281388,31.197355],[121.272951,31.195601],[121.258628,31.207728],[121.25302,31.222235],[121.252735,31.232725],[121.248368,31.238985],[121.245269,31.238552],[121.24349,31.242934],[121.235503,31.243079]]]}},{"type":"Feature","properties":{"id":"cn:310113","name":"宝山区","level":2},"geometry":{"type":"Polygon","coordinates":[[[121.295434,31.501658],[121.301024,31.507226],[121.305833,31.507797],[121.308897,31.502626],[121.312118,31.507641],[121.315624,31.507745],[121.315364,31.501586],[121.319158,31.501508],[121.319965,31.506031],[121.338906,31.513876],[121.3637,31.506138],[121.400756,31.488971],[121.399661,31.480965],[121.476812,31.429176],[121.501556,31.408978],[121.502789,31.411683],[121.496782,31.414766],[121.512838,31.408295],[121.505,31.41026],[121.502918,31.407893],[121.516847,31.396794],[121.499392,31.37571],[121.499392,31.366898],[121.503993,31.359236],[121.52112,31.348832],[121.518508,31.344913],[121.515876,31.346055],[121.513238,31.342787],[121.50112,31.34771],[121.489106,31.332415],[121.494488,31.327598],[121.491753,31.325302],[121.492248,31.31345],[121.463749,31.317915],[121.460807,31.32327],[121.443273,31.318938],[121.442101,31.321645],[121.428959,31.32268],[121.429982,31.314114],[121.427526,31.3135],[121.426652,31.305451],[121.42178,31.305015],[121.422291,31.300345],[121.414219,31.295837],[121.415044,31.29288],[121.419151,31.292871],[121.420605,31.27249],[121.414852,31.267061],[121.405942,31.272154],[121.406306,31.274995],[121.400788,31.274878],[121.40184,31.278671],[121.395885,31.279188],[121.399792,31.288031],[121.388837,31.29309],[121.390103,31.296486],[121.378559,31.295692],[121.376892,31.291256],[121.365043,31.290953],[121.353984,31.295317],[121.358923,31.304578],[121.356858,31.304729],[121.344409,31.302194],[121.343953,31.298401],[121.337716,31.299869],[121.336449,31.295605],[121.332361,31.295553],[121.326762,31.30334],[121.331537,31.305558],[121.33888,31.319049],[121.343108,31.318572],[121.344618,31.323166],[121.340998,31.322703],[121.342933,31.325933],[121.337118,31.335152],[121.341701,31.338183],[121.339767,31.343789],[121.327951,31.348969],[121.327699,31.353188],[121.330981,31.352862],[121.332552,31.357888],[121.337014,31.359909],[121.330451,31.368836],[121.331432,31.371964],[121.324184,31.379223],[121.325972,31.383006],[121.322066,31.382944],[121.315894,31.391006],[121.318602,31.397753],[121.310234,31.400266],[121.312847,31.405549],[121.309801,31.408464],[121.323915,31.413824],[121.328576,31.412597],[121.327829,31.418802],[121.331991,31.420913],[121.332864,31.426285],[121.331901,31.434933],[121.329097,31.441972],[121.323707,31.442953],[121.319583,31.456877],[121.314123,31.458769],[121.3125,31.46794],[121.316467,31.469999],[121.309678,31.474123],[121.314271,31.476931],[121.311996,31.482849],[121.308228,31.483142],[121.304654,31.494379],[121.295434,31.501658]]]}},{"type":"Feature","properties":{"id":"cn:310114","name":"嘉定区","level":2},"geometry":{"type":"Polygon","coordinates":[[[121.101913,31.367633],[121.11559,31.370462],[121.109123,31.376235],[121.143846,31.387226],[121.139228,31.394139],[121.144878,31.396317],[121.143064,31.399144],[121.148151,31.399991],[121.144479,31.402131],[121.148516,31.407663],[121.154809,31.407621],[121.154288,31.411942],[121.144314,31.417673],[121.141649,31.422882],[121.159739,31.42906],[121.159774,31.432895],[121.158568,31.430835],[121.158142,31.434047],[121.143229,31.437992],[121.142743,31.445733],[121.156345,31.451506],[121.176285,31.453322],[121.181536,31.456228],[121.181537,31.462688],[121.18879,31.469208],[121.198411,31.471248],[121.209323,31.48082],[121.209167,31.477849],[121.2146,31.477142],[121.225903,31.479362],[121.224427,31.484869],[121.230955,31.490033],[121.230781,31.495052],[121.237448,31.495226],[121.239956,31.483117],[121.243726,31.483816],[121.241362,31.481824],[121.24322,31.478836],[121.248915,31.481745],[121.24998,31.485687],[121.250347,31.479579],[121.254983,31.479886],[121.264418,31.489396],[121.267587,31.486265],[121.276163,31.492643],[121.289002,31.491716],[121.298542,31.498568],[121.304654,31.494379],[121.307482,31.484256],[121.311797,31.483064],[121.314175,31.47776],[121.309678,31.474123],[121.316467,31.469999],[121.3125,31.46794],[121.314123,31.458769],[121.319583,31.456877],[121.323707,31.442953],[121.329097,31.441972],[121.331901,31.434933],[121.332864,31.426285],[121.331991,31.420913],[121.327829,31.418802],[121.328576,31.412597],[121.323915,31.413824],[121.309801,31.409095],[121.312847,31.405549],[121.309974,31.400826],[121.318602,31.397753],[121.315894,31.391006],[121.322066,31.382944],[121.325972,31.383006],[121.324184,31.379223],[121.336528,31.361188],[121.331831,31.353485],[121.327699,31.353188],[121.327951,31.348969],[121.339767,31.343789],[121.341701,31.338183],[121.337118,31.335152],[121.342933,31.325933],[121.340998,31.322703],[121.344618,31.323166],[121.343108,31.318572],[121.338706,31.318834],[121.331354,31.305343],[121.326762,31.30334],[121.333073,31.297439],[121.321536,31.289203],[121.324452,31.28651],[121.328186,31.287971],[121.333706,31.274737],[121.362821,31.271484],[121.362375,31.268516],[121.355243,31.268858],[121.354314,31.265471],[121.361267,31.259541],[121.375226,31.2606],[121.373192,31.250819],[121.371117,31.246295],[121.363763,31.249241],[121.359062,31.24133],[121.351474,31.242035],[121.349592,31.239006],[121.344158,31.241261],[121.344896,31.245445],[121.34224,31.242938],[121.340043,31.245451],[121.341007,31.241782],[121.336302,31.241853],[121.329331,31.233925],[121.309565,31.229094],[121.288177,31.234757],[121.277144,31.249789],[121.279774,31.25383],[121.26408,31.256169],[121.263342,31.253512],[121.259548,31.261163],[121.242334,31.260455],[121.224644,31.264701],[121.219419,31.263485],[121.214097,31.255216],[121.209731,31.256334],[121.208845,31.262445],[121.205954,31.263281],[121.205299,31.259822],[121.201901,31.262027],[121.198663,31.257782],[121.190401,31.255821],[121.191355,31.253216],[121.184601,31.256927],[121.179731,31.254087],[121.173324,31.258142],[121.166884,31.256836],[121.158064,31.271057],[121.152839,31.272359],[121.150973,31.268021],[121.147205,31.269499],[121.150972,31.282627],[121.156727,31.285861],[121.14671,31.293791],[121.146933,31.298223],[121.143203,31.300048],[121.146206,31.30087],[121.139184,31.311538],[121.134806,31.305062],[121.125338,31.304415],[121.122352,31.320401],[121.128958,31.328298],[121.125217,31.336914],[121.125825,31.346016],[121.11335,31.345247],[121.1127,31.348921],[121.115572,31.349366],[121.11335,31.3532],[121.103698,31.352434],[121.101913,31.367633]]]}},{"type":"Feature","properties":{"id":"cn:310115","name":"浦东新区","level":2},"geometry":{"type":"MultiPolygon","coordinates":[[[[121.452691,31.146276],[121.464757,31.162206],[121.460348,31.17734],[121.461693,31.183023],[121.469419,31.189058],[121.49151,31.195822],[121.504836,31.214149],[121.502298,31.225167],[121.489019,31.238127],[121.490365,31.244193],[121.535694,31.253131],[121.554817,31.266365],[121.565286,31.281721],[121.5575,31.305473],[121.55763,31.323287],[121.554305,31.333377],[121.510503,31.354],[121.499392,31.366898],[121.499392,31.37571],[121.516847,31.396794],[121.594731,31.376752],[121.718142,31.305516],[121.739366,31.285196],[121.80552,31.198991],[121.849184,31.15753],[121.919516,31.09825],[121.92158,31.088709],[121.958524,31.049511],[121.973368,31.018307],[121.986709,30.97062],[121.994253,30.902172],[121.989731,30.865306],[121.981172,30.852975],[121.950599,30.828188],[121.951354,30.819507],[121.965561,30.791554],[121.93959,30.779515],[121.920529,30.809032],[121.911215,30.815323],[121.765363,30.819559],[121.763802,30.865488],[121.768793,30.882812],[121.772352,30.883218],[121.776831,30.918196],[121.773403,30.924791],[121.774401,30.932379],[121.769036,30.933737],[121.763645,30.94051],[121.757126,30.940595],[121.760199,30.943937],[121.754939,30.951317],[121.732508,30.96087],[121.727552,30.969954],[121.695139,30.989611],[121.658863,30.994979],[121.61697,30.994898],[121.608307,31.003765],[121.566259,31.000656],[121.563742,31.003179],[121.567248,31.007936],[121.565512,31.012897],[121.561016,31.013795],[121.565608,31.014744],[121.570512,31.022613],[121.568298,31.028676],[121.561988,31.02342],[121.558125,31.026813],[121.551594,31.020799],[121.54712,31.023013],[121.554158,31.026795],[121.557261,31.045456],[121.550486,31.053069],[121.541755,31.049422],[121.542925,31.063876],[121.5525,31.069608],[121.548525,31.07174],[121.571232,31.083023],[121.556823,31.085963],[121.549297,31.082526],[121.546294,31.085054],[121.544271,31.089099],[121.547344,31.092344],[121.563038,31.095874],[121.55362,31.111169],[121.555617,31.114115],[121.551024,31.117094],[121.541493,31.112075],[121.537951,31.118339],[121.533576,31.116155],[121.527092,31.120575],[121.51013,31.117385],[121.505339,31.123542],[121.497144,31.11673],[121.494688,31.123194],[121.488342,31.120754],[121.484323,31.126875],[121.472934,31.119329],[121.475573,31.111914],[121.472579,31.111365],[121.47,31.116426],[121.467023,31.112179],[121.460651,31.114065],[121.465139,31.126834],[121.452691,31.146276]]],[[[121.937699,31.209859],[121.942456,31.226526],[121.9469,31.23097],[121.976446,31.230173],[122.004267,31.222994],[122.008305,31.212001],[122.007706,31.194049],[121.991478,31.162868],[121.96151,31.159698],[121.955477,31.161445],[121.943889,31.178587],[121.937699,31.209859]]],[[[121.876744,31.238509],[121.87849,31.243033],[121.885789,31.24478],[121.919444,31.23605],[121.923412,31.226208],[121.918333,31.199065],[121.909756,31.196048],[121.897535,31.203667],[121.881033,31.222717],[121.876744,31.238509]]],[[[121.519037,31.396342],[121.518938,31.396561],[121.519121,31.396483],[121.519037,31.396342]]]]}},{"type":"Feature","properties":{"id":"cn:310116","name":"金山区","level":2},"geometry":{"type":"MultiPolygon","coordinates":[[[[120.984827,30.834611],[120.993429,30.846341],[121.010625,30.855811],[121.006606,30.858244],[121.011875,30.86505],[121.009583,30.866586],[121.013377,30.871567],[121.010429,30.87322],[121.01605,30.874054],[121.017474,30.877337],[121.013073,30.884904],[121.002757,30.885771],[121.004149,30.890329],[120.989106,30.891969],[120.9861,30.897811],[120.989835,30.905515],[121.000165,30.909158],[121.000216,30.911503],[120.994639,30.911752],[120.996476,30.939928],[120.991345,30.946541],[120.993481,30.953229],[120.997708,30.953229],[120.998298,30.949206],[121.006866,30.953125],[121.010616,30.951875],[121.006415,30.946949],[121.01329,30.941365],[121.012526,30.94348],[121.025443,30.946562],[121.027048,30.93819],[121.020495,30.911943],[121.030191,30.908266],[121.029931,30.904851],[121.035851,30.906601],[121.03783,30.901514],[121.048507,30.90545],[121.063394,30.906546],[121.065851,30.904171],[121.076259,30.907981],[121.092535,30.905228],[121.092734,30.910892],[121.085495,30.913064],[121.084435,30.917313],[121.095807,30.928464],[121.10053,30.922146],[121.10612,30.924531],[121.116858,30.921982],[121.11513,30.912407],[121.106259,30.903055],[121.108863,30.899451],[121.118958,30.904885],[121.125591,30.904627],[121.127136,30.901768],[121.136701,30.903383],[121.132855,30.915382],[121.134488,30.921645],[121.138689,30.920156],[121.138437,30.916977],[121.152109,30.912036],[121.153672,30.922358],[121.160096,30.922018],[121.166753,30.916776],[121.181996,30.917526],[121.204957,30.922732],[121.218576,30.932923],[121.222925,30.928958],[121.230084,30.930742],[121.230369,30.928159],[121.236249,30.927335],[121.24125,30.921071],[121.23928,30.920043],[121.241797,30.910977],[121.262534,30.908459],[121.261762,30.903913],[121.268568,30.902598],[121.270365,30.897021],[121.273767,30.899395],[121.275226,30.896649],[121.283985,30.898251],[121.28658,30.904856],[121.285321,30.919557],[121.290504,30.920673],[121.290373,30.917118],[121.297326,30.910617],[121.30204,30.914273],[121.303256,30.911584],[121.315642,30.913221],[121.3321,30.908841],[121.347258,30.915288],[121.352118,30.910677],[121.358689,30.889019],[121.377605,30.881001],[121.380833,30.845236],[121.37447,30.845306],[121.376381,30.837266],[121.388655,30.82975],[121.39237,30.830054],[121.393151,30.835849],[121.399592,30.835849],[121.396371,30.829461],[121.400165,30.825139],[121.409557,30.823817],[121.410521,30.817872],[121.414679,30.818092],[121.41592,30.821864],[121.43243,30.820185],[121.437057,30.808926],[121.442144,30.807687],[121.474288,30.75855],[121.402388,30.7202],[121.357336,30.681699],[121.342119,30.677797],[121.270261,30.679713],[121.266638,30.703331],[121.261475,30.711797],[121.267639,30.725547],[121.265252,30.729245],[121.267057,30.735022],[121.261337,30.736531],[121.249922,30.747398],[121.231129,30.75455],[121.221189,30.778854],[121.217717,30.779375],[121.213576,30.787207],[121.196615,30.786212],[121.195886,30.775851],[121.192508,30.775575],[121.18651,30.783293],[121.170182,30.774195],[121.166294,30.77926],[121.156224,30.775374],[121.156163,30.778737],[121.14816,30.781116],[121.122543,30.780805],[121.123573,30.812167],[121.132856,30.82712],[121.132856,30.83207],[121.129697,30.83059],[121.12704,30.838082],[121.113168,30.837367],[121.118967,30.849325],[121.117144,30.852047],[121.108576,30.856102],[121.100209,30.851381],[121.093134,30.859145],[121.075908,30.850804],[121.062453,30.850852],[121.055995,30.847275],[121.057517,30.839883],[121.042257,30.833222],[121.044392,30.827314],[121.035477,30.829371],[121.037239,30.826997],[121.033507,30.821521],[121.036841,30.823694],[121.040486,30.817669],[121.033446,30.816049],[121.025614,30.830722],[121.010018,30.838029],[120.999097,30.828559],[120.996988,30.831629],[120.994149,30.830499],[120.990295,30.82378],[120.986623,30.824997],[120.988446,30.828416],[120.984853,30.830991],[120.988151,30.833858],[120.984827,30.834611]]],[[[121.422656,30.682355],[121.422083,30.684325],[121.42415,30.683631],[121.422656,30.682355]]],[[[121.41415,30.693241],[121.421372,30.693618],[121.424323,30.691257],[121.420139,30.689609],[121.41415,30.693241]]],[[[121.404167,30.706218],[121.401962,30.707041],[121.404723,30.706982],[121.404167,30.706218]]]]}},{"type":"Feature","properties":{"id":"cn:310117","name":"松江区","level":2},"geometry":{"type":"Polygon","coordinates":[[[121.020859,30.911202],[121.027396,30.941879],[121.023464,30.947943],[121.02875,30.949208],[121.031779,30.959171],[121.039019,30.959575],[121.041441,30.965504],[121.03862,30.971482],[121.04651,30.971406],[121.048733,30.966486],[121.052821,30.96737],[121.055798,30.958542],[121.064167,30.956927],[121.071918,30.957811],[121.07666,30.964273],[121.0929,30.967621],[121.090964,30.976224],[121.094574,30.97505],[121.095555,30.996907],[121.099514,30.997047],[121.099609,31.009954],[121.080946,31.027453],[121.084921,31.029849],[121.091814,31.028387],[121.095686,31.035352],[121.093168,31.040812],[121.088507,31.042656],[121.091614,31.046747],[121.085659,31.050069],[121.08533,31.053871],[121.08256,31.054885],[121.081276,31.052163],[121.07638,31.058839],[121.086076,31.066962],[121.089939,31.063828],[121.090034,31.058266],[121.096545,31.055573],[121.097213,31.059204],[121.113611,31.058001],[121.113403,31.060343],[121.123221,31.060858],[121.121633,31.068583],[121.117647,31.06911],[121.113785,31.077869],[121.102665,31.084032],[121.097535,31.082207],[121.094905,31.085486],[121.093368,31.101241],[121.096007,31.10033],[121.098941,31.104546],[121.101094,31.102771],[121.100026,31.105286],[121.107986,31.113837],[121.128724,31.100998],[121.137032,31.100621],[121.150608,31.092433],[121.152239,31.100903],[121.149844,31.103795],[121.160113,31.102628],[121.161918,31.110288],[121.170399,31.110853],[121.1698,31.119851],[121.180625,31.122673],[121.175408,31.131387],[121.177457,31.145464],[121.191215,31.139996],[121.197162,31.14296],[121.196102,31.139149],[121.20171,31.140332],[121.203829,31.137719],[121.223559,31.141148],[121.2173,31.121985],[121.218585,31.1171],[121.22997,31.119291],[121.232404,31.127771],[121.240113,31.127467],[121.240903,31.131363],[121.235001,31.132554],[121.241059,31.132834],[121.24257,31.136226],[121.253629,31.134418],[121.254106,31.129069],[121.257188,31.129247],[121.256198,31.134336],[121.261311,31.138459],[121.276554,31.135304],[121.283039,31.142003],[121.271979,31.147908],[121.280312,31.15531],[121.285965,31.154292],[121.31172,31.16218],[121.314194,31.158818],[121.324496,31.15839],[121.334241,31.142285],[121.332552,31.139465],[121.340116,31.132289],[121.342182,31.12361],[121.352293,31.113114],[121.348712,31.1089],[121.343968,31.108619],[121.346592,31.101337],[121.35816,31.101708],[121.367412,31.081811],[121.36088,31.079844],[121.357518,31.074557],[121.359149,31.070308],[121.352691,31.068731],[121.353611,31.066012],[121.348863,31.063263],[121.338897,31.061131],[121.336909,31.064755],[121.331189,31.064952],[121.32845,31.016271],[121.339696,31.015955],[121.322257,30.996543],[121.322856,30.98273],[121.341562,30.978068],[121.354132,30.979874],[121.356519,30.974839],[121.3579,30.950929],[121.360876,30.949252],[121.356632,30.946939],[121.358081,30.936792],[121.346598,30.932689],[121.351484,30.921797],[121.346042,30.913468],[121.343021,30.915215],[121.340607,30.911031],[121.3321,30.908841],[121.315642,30.913221],[121.303256,30.911584],[121.30204,30.914273],[121.297326,30.910617],[121.290373,30.917118],[121.290504,30.920673],[121.285321,30.919557],[121.28658,30.904856],[121.283985,30.898251],[121.275226,30.896649],[121.273767,30.899395],[121.270365,30.897021],[121.268568,30.902598],[121.261762,30.903913],[121.262534,30.908459],[121.241797,30.910977],[121.23928,30.920043],[121.24125,30.921071],[121.236249,30.927335],[121.230369,30.928159],[121.230084,30.930742],[121.222925,30.928958],[121.218576,30.932923],[121.204957,30.922732],[121.181996,30.917526],[121.166753,30.916776],[121.160096,30.922018],[121.153672,30.922358],[121.152109,30.912036],[121.138437,30.916977],[121.138689,30.920156],[121.134488,30.921645],[121.132855,30.915382],[121.136701,30.903383],[121.127136,30.901768],[121.125591,30.904627],[121.118958,30.904885],[121.108863,30.899451],[121.106259,30.903055],[121.11513,30.912407],[121.116858,30.921982],[121.10612,30.924531],[121.10053,30.922146],[121.095807,30.928464],[121.084435,30.917313],[121.085495,30.913064],[121.091615,30.91235],[121.094193,30.908631],[121.090555,30.904484],[121.089756,30.90683],[121.084557,30.905171],[121.076259,30.907981],[121.065851,30.904171],[121.063394,30.906546],[121.048507,30.90545],[121.03783,30.901514],[121.035851,30.906601],[121.029931,30.904851],[121.030191,30.908266],[121.020859,30.911202]]]}},{"type":"Feature","properties":{"id":"cn:310118","name":"青浦区","level":2},"geometry":{"type":"MultiPolygon","coordinates":[[[[120.852612,31.105062],[120.853724,31.110753],[120.86454,31.119505],[120.868177,31.129399],[120.877135,31.136968],[120.902256,31.136532],[120.926172,31.143653],[120.979609,31.133845],[121.014062,31.136128],[121.022266,31.145768],[121.031632,31.142309],[121.031771,31.139353],[121.036267,31.139555],[121.04026,31.147483],[121.036971,31.151782],[121.040903,31.155979],[121.044601,31.156549],[121.047353,31.152419],[121.057994,31.155039],[121.064548,31.150606],[121.063204,31.154199],[121.072439,31.160345],[121.072205,31.164509],[121.068542,31.165147],[121.072708,31.167902],[121.07088,31.172202],[121.067335,31.172402],[121.070842,31.175327],[121.066641,31.183351],[121.070998,31.184728],[121.064896,31.184779],[121.067977,31.193411],[121.062222,31.196849],[121.064635,31.198399],[121.058063,31.226542],[121.062803,31.234796],[121.056675,31.239696],[121.059331,31.24031],[121.059774,31.248001],[121.053119,31.248631],[121.056415,31.248359],[121.057891,31.26931],[121.077543,31.273368],[121.079939,31.277534],[121.076754,31.279088],[121.077812,31.282747],[121.084175,31.293898],[121.088967,31.291694],[121.093437,31.279199],[121.098558,31.275927],[121.100824,31.275471],[121.099201,31.277146],[121.103846,31.282561],[121.116718,31.288783],[121.122599,31.283036],[121.13829,31.279512],[121.138406,31.277319],[121.149166,31.278509],[121.148308,31.268592],[121.150973,31.268021],[121.152839,31.272359],[121.158064,31.271057],[121.165842,31.261028],[121.1644,31.258099],[121.173324,31.258142],[121.179731,31.254087],[121.184601,31.256927],[121.191355,31.253216],[121.190401,31.255821],[121.198663,31.257782],[121.201901,31.262027],[121.205299,31.259822],[121.205954,31.263281],[121.208845,31.262445],[121.209731,31.256334],[121.214097,31.255216],[121.220225,31.263839],[121.247543,31.261959],[121.249271,31.2597],[121.237248,31.24936],[121.235503,31.243079],[121.24349,31.242934],[121.252735,31.232725],[121.25302,31.222235],[121.256789,31.217109],[121.254973,31.214804],[121.260356,31.205344],[121.272951,31.195601],[121.281388,31.197355],[121.287978,31.204527],[121.292873,31.203546],[121.319314,31.165204],[121.313067,31.160253],[121.31172,31.16218],[121.274203,31.152542],[121.272579,31.146231],[121.274852,31.147758],[121.283039,31.142003],[121.276554,31.135304],[121.261311,31.138459],[121.256198,31.134336],[121.257188,31.129247],[121.254106,31.129069],[121.253629,31.134418],[121.24257,31.136226],[121.241059,31.132834],[121.235001,31.132554],[121.240903,31.131363],[121.240113,31.127467],[121.233342,31.128281],[121.22997,31.119291],[121.219661,31.117205],[121.216719,31.118786],[121.223559,31.141148],[121.203829,31.137719],[121.20171,31.140332],[121.196102,31.139149],[121.197162,31.14296],[121.191215,31.139996],[121.177457,31.145464],[121.175408,31.131387],[121.180625,31.122673],[121.1698,31.119851],[121.170399,31.110853],[121.161918,31.110288],[121.160113,31.102628],[121.149844,31.103795],[121.152239,31.100903],[121.150608,31.092433],[121.137032,31.100621],[121.128724,31.100998],[121.107986,31.113837],[121.100026,31.105286],[121.101094,31.102771],[121.098941,31.104546],[121.096007,31.10033],[121.093368,31.101241],[121.094905,31.085486],[121.097535,31.082207],[121.102665,31.084032],[121.113785,31.077869],[121.117647,31.06911],[121.121633,31.068583],[121.123221,31.060858],[121.113403,31.060343],[121.113611,31.058001],[121.097213,31.059204],[121.096545,31.055573],[121.090034,31.058266],[121.089939,31.063828],[121.086076,31.066962],[121.07638,31.058839],[121.081276,31.052163],[121.08256,31.054885],[121.08533,31.053871],[121.085659,31.050069],[121.091614,31.046747],[121.088507,31.042656],[121.093168,31.040812],[121.095686,31.035352],[121.091814,31.028387],[121.084921,31.029849],[121.080946,31.027453],[121.099609,31.009954],[121.099514,30.997047],[121.095555,30.996907],[121.094574,30.97505],[121.090964,30.976224],[121.0929,30.967621],[121.07666,30.964273],[121.071918,30.957811],[121.064167,30.956927],[121.055798,30.958542],[121.052821,30.96737],[121.048733,30.966486],[121.04651,30.971406],[121.03862,30.971482],[121.041441,30.965504],[121.039019,30.959575],[121.031779,30.959171],[121.02875,30.949208],[121.012526,30.94348],[121.01329,30.941365],[121.006415,30.946949],[121.010616,30.951875],[121.006866,30.953125],[120.998298,30.949206],[120.997708,30.953229],[120.991042,30.952572],[120.988211,30.957238],[120.987369,30.960427],[120.990434,30.960901],[120.987535,30.972714],[120.994774,30.975112],[120.998004,30.979794],[120.990504,30.997435],[120.986197,30.996745],[120.986102,31.015994],[120.958976,31.018852],[120.960625,31.021996],[120.956258,31.023923],[120.954089,31.030829],[120.948003,31.032528],[120.943993,31.030714],[120.946979,31.026294],[120.945782,31.019916],[120.93138,31.018833],[120.935625,31.011693],[120.913967,31.015115],[120.906883,31.01289],[120.90592,31.019271],[120.897222,31.019824],[120.897838,31.039957],[120.890425,31.056194],[120.895478,31.080651],[120.900885,31.081677],[120.897968,31.087945],[120.892552,31.08893],[120.888203,31.09977],[120.883333,31.09635],[120.874471,31.097684],[120.872474,31.102203],[120.861571,31.099872],[120.852612,31.105062]]],[[[121.106747,31.287898],[121.105932,31.289313],[121.106931,31.289191],[121.106747,31.287898]]]]}},{"type":"Feature","properties":{"id":"cn:310120","name":"奉贤区","level":2},"geometry":{"type":"Polygon","coordinates":[[[121.346598,30.932689],[121.358081,30.936792],[121.356632,30.946939],[121.360876,30.949252],[121.3579,30.950929],[121.354132,30.979874],[121.412969,30.994359],[121.436207,31.007765],[121.456598,31.009653],[121.471849,31.015393],[121.484687,31.017042],[121.488429,31.01485],[121.491771,31.000091],[121.512639,31.009804],[121.517891,31.005158],[121.515963,31.001541],[121.533941,30.995387],[121.54073,30.996285],[121.547136,30.990235],[121.548298,30.996936],[121.591398,31.004371],[121.610529,31.003571],[121.61697,30.994898],[121.650304,30.995536],[121.68868,30.991545],[121.716962,30.977318],[121.729036,30.968411],[121.732508,30.96087],[121.743506,30.954056],[121.754939,30.951317],[121.760199,30.943937],[121.757126,30.940595],[121.763645,30.94051],[121.769036,30.933737],[121.774401,30.932379],[121.773403,30.924791],[121.776831,30.918196],[121.772352,30.883218],[121.768793,30.882812],[121.763802,30.865488],[121.765363,30.819559],[121.644219,30.818593],[121.597161,30.807521],[121.548594,30.791795],[121.474288,30.75855],[121.442144,30.807687],[121.437057,30.808926],[121.43243,30.820185],[121.41592,30.821864],[121.414679,30.818092],[121.410521,30.817872],[121.409557,30.823817],[121.400165,30.825139],[121.396371,30.829461],[121.399592,30.835849],[121.393151,30.835849],[121.39237,30.830054],[121.388655,30.82975],[121.376381,30.837266],[121.37447,30.845306],[121.380833,30.845236],[121.377605,30.881001],[121.358689,30.889019],[121.352118,30.910677],[121.34697,30.915716],[121.351484,30.921797],[121.346598,30.932689]]]}},{"type":"Feature","properties":{"id":"cn:310151","name":"崇明区","level":2},"geometry":{"type":"MultiPolygon","coordinates":[[[[121.113836,31.760838],[121.144601,31.789089],[121.167224,31.818473],[121.195799,31.837044],[121.261094,31.866076],[121.297369,31.874633],[121.311293,31.873376],[121.380356,31.835303],[121.406792,31.808102],[121.411608,31.799401],[121.406202,31.797338],[121.426805,31.771026],[121.459531,31.758962],[121.494062,31.755175],[121.508599,31.745654],[121.535069,31.737528],[121.560737,31.718788],[121.574279,31.712628],[121.595423,31.705229],[121.598511,31.70905],[121.629018,31.698253],[121.644214,31.697628],[121.644445,31.70757],[121.813498,31.654014],[121.970954,31.619041],[121.983984,31.531566],[121.989586,31.513846],[121.991435,31.495053],[121.98743,31.478726],[121.977572,31.466094],[121.913923,31.436814],[121.886415,31.430909],[121.853619,31.432126],[121.814887,31.440221],[121.678533,31.493081],[121.604566,31.509019],[121.543367,31.533177],[121.466597,31.57626],[121.429557,31.592096],[121.398836,31.591749],[121.390781,31.587185],[121.367561,31.554974],[121.284618,31.618188],[121.140703,31.755712],[121.113836,31.760838]]],[[[121.504436,31.489607],[121.512525,31.496274],[121.558081,31.488457],[121.563082,31.485599],[121.571579,31.465916],[121.581337,31.45679],[121.66954,31.429791],[121.692847,31.425994],[121.749332,31.402313],[121.769762,31.388947],[121.786532,31.369047],[121.791675,31.347621],[121.794442,31.312367],[121.792375,31.30937],[121.76302,31.315275],[121.745379,31.341033],[121.73638,31.348459],[121.568004,31.438177],[121.538958,31.464448],[121.505703,31.484528],[121.504436,31.489607]]],[[[122.237222,31.420582],[122.240981,31.42326],[122.242917,31.42127],[122.239158,31.419683],[122.237222,31.420582]]],[[[121.788459,31.379561],[121.792423,31.383067],[121.813159,31.38261],[121.841366,31.376663],[121.947577,31.339376],[122.03667,31.325678],[122.112205,31.323024],[122.11752,31.317234],[122.118226,31.309002],[122.100737,31.263946],[122.093301,31.257471],[122.082817,31.259358],[122.067543,31.268655],[122.012118,31.28424],[121.971579,31.28207],[121.928138,31.285306],[121.896643,31.293336],[121.861797,31.297073],[121.848685,31.294481],[121.82936,31.301731],[121.802334,31.326195],[121.798827,31.334124],[121.796235,31.365991],[121.788459,31.379561]]],[[[121.571357,31.478956],[121.572913,31.481446],[121.582665,31.481653],[121.604349,31.476569],[121.627381,31.458932],[121.631427,31.449906],[121.622816,31.447104],[121.60964,31.45001],[121.585467,31.463601],[121.571357,31.478956]]]]}}]}