{"type":"FeatureCollection","features":[{"type":"Feature","properties":{"id":"cn:71","name":"台湾省","level":0},"geometry":{"type":"MultiPolygon","coordinates":[[[[120.014781,23.075709],[120.019007,23.110235],[120.037333,23.149693],[120.07714,23.294314],[120.093346,23.315805],[120.103563,23.343636],[120.117476,23.507016],[120.110893,23.525632],[120.066015,23.470533],[120.059368,23.453607],[120.059218,23.440149],[120.050759,23.445306],[120.060575,23.476287],[120.107254,23.53394],[120.091931,23.572457],[120.090524,23.589809],[120.097043,23.631029],[120.098449,23.703338],[120.101626,23.710384],[120.130158,23.743148],[120.171189,23.809884],[120.21026,23.830682],[120.24175,23.843122],[120.25147,23.854396],[120.266144,23.913309],[120.274251,23.930394],[120.301022,23.955673],[120.312125,23.98747],[120.387903,24.120764],[120.447404,24.18529],[120.46654,24.245244],[120.517163,24.314854],[120.542537,24.373337],[120.585515,24.435343],[120.639066,24.493122],[120.668313,24.574681],[120.684881,24.603584],[120.758505,24.661173],[120.819979,24.691208],[120.858382,24.735772],[120.877573,24.748809],[120.888589,24.77052],[120.89634,24.830322],[120.904795,24.854984],[120.957112,24.943147],[120.991287,24.976],[121.005731,24.996434],[121.020696,25.043203],[121.030035,25.048135],[121.051703,25.0506],[121.064827,25.056413],[121.097943,25.077726],[121.129037,25.081337],[121.149288,25.098822],[121.205304,25.129823],[121.232429,25.135459],[121.315224,25.143386],[121.353114,25.154626],[121.367718,25.162466],[121.385703,25.184449],[121.396256,25.216488],[121.409286,25.241501],[121.440292,25.273209],[121.48169,25.295581],[121.531187,25.310377],[121.581212,25.311874],[121.619262,25.297609],[121.638463,25.271011],[121.651501,25.244763],[121.669999,25.235692],[121.696423,25.229702],[121.703877,25.216112],[121.701354,25.205393],[121.703463,25.194294],[121.741337,25.164702],[121.778507,25.163205],[121.800347,25.15792],[121.838402,25.13819],[121.913437,25.140833],[121.925115,25.133028],[121.926129,25.086578],[121.938099,25.041395],[121.943741,25.034876],[121.977031,25.033643],[121.986189,25.030121],[122.005613,25.018067],[122.00836,25.004198],[121.929209,24.941604],[121.867205,24.875722],[121.841311,24.839171],[121.83461,24.786325],[121.837786,24.737003],[121.858923,24.674468],[121.888871,24.620918],[121.890633,24.606474],[121.881823,24.532665],[121.870547,24.515401],[121.863854,24.481933],[121.822986,24.426445],[121.812066,24.385928],[121.805373,24.341892],[121.714123,24.212066],[121.685234,24.177187],[121.676779,24.153936],[121.674314,24.136673],[121.660572,24.117471],[121.640139,24.100562],[121.634852,24.087174],[121.636267,24.067092],[121.654236,24.032567],[121.657404,24.018825],[121.655642,24.009668],[121.637673,23.976727],[121.617942,23.923529],[121.584125,23.763758],[121.519297,23.541275],[121.517717,23.485787],[121.506268,23.461742],[121.493932,23.422285],[121.475616,23.324785],[121.464514,23.30664],[121.436328,23.274492],[121.421354,23.23803],[121.422406,23.22925],[121.410963,23.198394],[121.414487,23.17241],[121.426293,23.139648],[121.426011,23.126288],[121.405503,23.105122],[121.384185,23.095621],[121.384247,23.092828],[121.378021,23.094596],[121.366397,23.086844],[121.357587,23.058309],[121.35072,23.012597],[121.320773,22.9483],[121.272508,22.879954],[121.234106,22.839086],[121.206623,22.77338],[121.194296,22.754709],[121.16664,22.72582],[121.141103,22.70838],[121.074514,22.67227],[121.029417,22.65342],[121.023958,22.646816],[121.013113,22.616782],[121.011189,22.586958],[120.991719,22.56922],[120.977977,22.531172],[120.911398,22.305694],[120.899947,22.129366],[120.906641,22.108581],[120.90875,22.089203],[120.907344,22.049832],[120.899063,22.027109],[120.879752,21.998009],[120.862951,21.987212],[120.861016,21.957265],[120.869361,21.90019],[120.85855,21.888212],[120.851154,21.886098],[120.839522,21.888211],[120.817682,21.906532],[120.777873,21.926614],[120.753915,21.93049],[120.739556,21.91821],[120.728089,21.917446],[120.707413,21.922738],[120.697899,21.929785],[120.675347,21.971885],[120.664079,21.985978],[120.647873,22.036004],[120.647873,22.048689],[120.658438,22.069826],[120.65738,22.109285],[120.655626,22.157199],[120.641702,22.22951],[120.636945,22.244306],[120.595556,22.320493],[120.566311,22.364707],[120.51383,22.411403],[120.439566,22.44393],[120.351232,22.49541],[120.293272,22.534121],[120.270374,22.56301],[120.19639,22.723837],[120.144958,22.899287],[120.128754,23.002868],[120.095639,23.016081],[120.025353,23.051224],[120.017958,23.062673],[120.014781,23.075709]]],[[[119.530435,23.540589],[119.539012,23.542761],[119.541207,23.55515],[119.549634,23.555852],[119.558966,23.531968],[119.566336,23.536074],[119.575013,23.528143],[119.580144,23.533461],[119.593766,23.532248],[119.595818,23.546336],[119.586675,23.547922],[119.574639,23.545123],[119.562044,23.548761],[119.561437,23.558231],[119.569088,23.558791],[119.567128,23.561683],[119.555653,23.561497],[119.558825,23.565602],[119.558078,23.570547],[119.565075,23.576424],[119.56041,23.58594],[119.574685,23.5879],[119.583402,23.595984],[119.590079,23.57997],[119.594838,23.577451],[119.603468,23.58916],[119.601602,23.602501],[119.603748,23.60586],[119.628175,23.611324],[119.638653,23.601757],[119.652092,23.612008],[119.661659,23.600847],[119.666214,23.600619],[119.668493,23.604719],[119.673731,23.602669],[119.684893,23.585813],[119.686033,23.567364],[119.697878,23.558936],[119.696738,23.553242],[119.678972,23.548914],[119.656876,23.558025],[119.646854,23.556885],[119.62061,23.536574],[119.614079,23.535361],[119.610187,23.528143],[119.612892,23.52068],[119.607668,23.506405],[119.59302,23.509763],[119.571141,23.506265],[119.569099,23.521228],[119.556726,23.522638],[119.546269,23.536753],[119.530435,23.540589]]],[[[123.457811,25.739897],[123.464498,25.747675],[123.473611,25.751429],[123.486838,25.749883],[123.493756,25.743314],[123.488462,25.740458],[123.477186,25.741332],[123.464072,25.735155],[123.460714,25.735458],[123.459416,25.735415],[123.457811,25.739897]]],[[[123.675539,25.923724],[123.682803,25.929202],[123.688821,25.92217],[123.681638,25.918984],[123.675539,25.923724]]],[[[123.537739,25.73169],[123.541728,25.734596],[123.54203,25.731709],[123.545681,25.728876],[123.544671,25.727958],[123.544954,25.727364],[123.544248,25.726987],[123.544842,25.726247],[123.541488,25.725801],[123.537739,25.73169]]],[[[119.466179,23.562875],[119.480211,23.575176],[119.493109,23.57213],[119.501737,23.580042],[119.500902,23.590133],[119.490079,23.594296],[119.494005,23.600254],[119.498781,23.597388],[119.501887,23.599598],[119.506394,23.612764],[119.500244,23.619212],[119.501915,23.633244],[119.508484,23.641663],[119.512511,23.656023],[119.525929,23.655195],[119.522427,23.647486],[119.530965,23.641514],[119.543983,23.641634],[119.541236,23.631961],[119.521113,23.627482],[119.523473,23.599388],[119.520696,23.593865],[119.514187,23.590641],[119.517293,23.584968],[119.514396,23.577056],[119.51798,23.564697],[119.514456,23.562308],[119.496185,23.566905],[119.491825,23.562845],[119.472151,23.558516],[119.466179,23.562875]]],[[[123.544649,25.780864],[123.543295,25.781663],[123.543597,25.781986],[123.544649,25.780864]]],[[[123.544711,25.723401],[123.551083,25.725864],[123.555828,25.721554],[123.551027,25.720861],[123.544711,25.723401]]],[[[123.687384,25.924583],[123.687637,25.925573],[123.688118,25.92523],[123.687384,25.924583]]],[[[119.487076,23.356457],[119.493287,23.366906],[119.491047,23.375951],[119.493914,23.38658],[119.489614,23.396073],[119.49463,23.397208],[119.50072,23.390879],[119.507288,23.393805],[119.507826,23.383236],[119.514561,23.383886],[119.515846,23.381454],[119.50914,23.379833],[119.511588,23.375235],[119.509797,23.371235],[119.514813,23.374997],[119.517142,23.372668],[119.516723,23.367593],[119.50926,23.364188],[119.513051,23.353053],[119.4906,23.352694],[119.487076,23.356457]]],[[[119.518023,23.36541],[119.524854,23.36732],[119.525566,23.37539],[119.529344,23.372479],[119.539424,23.374247],[119.543102,23.365601],[119.537226,23.365028],[119.537122,23.359801],[119.532354,23.365839],[119.525241,23.357915],[119.519457,23.360871],[119.518023,23.36541]]],[[[119.552939,23.719965],[119.559201,23.720161],[119.556192,23.709228],[119.556021,23.717349],[119.552939,23.719965]]],[[[119.548418,23.65891],[119.553083,23.669173],[119.582192,23.67869],[119.592362,23.673838],[119.602252,23.674118],[119.611209,23.663669],[119.613074,23.65322],[119.611862,23.645943],[119.603651,23.646036],[119.602065,23.640718],[119.611582,23.635306],[119.610929,23.632507],[119.605705,23.630456],[119.604305,23.622991],[119.599826,23.619726],[119.596001,23.623178],[119.587978,23.621499],[119.588631,23.629335],[119.593855,23.637265],[119.587137,23.642584],[119.57818,23.659004],[119.573328,23.660217],[119.56204,23.650047],[119.555042,23.652006],[119.548418,23.65891]]],[[[119.66511,23.681302],[119.669066,23.677802],[119.668435,23.67631],[119.665761,23.677474],[119.66511,23.681302]]],[[[121.461659,22.672972],[121.464316,22.679342],[121.479205,22.676918],[121.490483,22.680556],[121.510946,22.679226],[121.514178,22.665607],[121.511985,22.654642],[121.505059,22.649563],[121.50379,22.646908],[121.5091,22.63756],[121.50806,22.632134],[121.494902,22.631903],[121.487631,22.641022],[121.472626,22.644369],[121.472857,22.656257],[121.461659,22.672972]]],[[[121.4957,22.08069],[121.496998,22.08848],[121.501327,22.090356],[121.516909,22.084296],[121.572023,22.087326],[121.572023,22.069436],[121.577506,22.058615],[121.567839,22.053998],[121.569137,22.043899],[121.578515,22.035387],[121.601023,22.025575],[121.602754,22.018939],[121.597343,22.006026],[121.590996,21.998235],[121.581184,21.997803],[121.566613,22.003141],[121.560986,22.014827],[121.55406,22.02031],[121.530398,22.024926],[121.506088,22.045486],[121.503924,22.051257],[121.507386,22.068859],[121.4957,22.08069]]],[[[119.320875,23.323347],[119.320285,23.327655],[119.325805,23.323695],[119.320875,23.323347]]],[[[119.595349,23.739158],[119.610655,23.757569],[119.613711,23.756279],[119.613569,23.752459],[119.622119,23.748158],[119.622266,23.74181],[119.616917,23.74071],[119.615531,23.736602],[119.608127,23.737367],[119.60304,23.726977],[119.595349,23.739158]]],[[[119.507971,23.485485],[119.509996,23.492479],[119.517945,23.488735],[119.521077,23.493243],[119.537395,23.498746],[119.544274,23.49504],[119.527995,23.485639],[119.510225,23.482199],[119.507971,23.485485]]],[[[119.313615,23.400776],[119.319251,23.41243],[119.331725,23.405411],[119.327885,23.399859],[119.316244,23.396435],[119.313615,23.400776]]],[[[123.539875,25.778941],[123.540144,25.779552],[123.540481,25.778866],[123.539875,25.778941]]],[[[119.509569,23.255277],[119.514931,23.263984],[119.522268,23.264252],[119.516025,23.254887],[119.509569,23.255277]]],[[[121.781587,25.189621],[121.785673,25.195154],[121.78911,25.194854],[121.788442,25.191154],[121.781587,25.189621]]],[[[124.555879,25.92057],[124.556848,25.923284],[124.561557,25.922421],[124.555879,25.92057]]],[[[123.556433,25.721084],[123.556647,25.72144],[123.556485,25.721068],[123.556433,25.721084]]],[[[123.540881,25.778935],[123.541496,25.779422],[123.54185,25.779193],[123.540881,25.778935]]],[[[121.934033,24.846625],[121.942732,24.843883],[121.947365,24.850832],[121.95214,24.851683],[121.959326,24.848469],[121.965142,24.837879],[121.961076,24.834617],[121.946136,24.835515],[121.940889,24.837548],[121.934033,24.846625]]],[[[123.556559,25.721479],[123.556613,25.7217],[123.556719,25.721504],[123.556559,25.721479]]],[[[119.669757,23.687664],[119.672113,23.687065],[119.671726,23.684544],[119.670789,23.68481],[119.669757,23.687664]]],[[[121.51082,22.681297],[121.511685,22.682581],[121.512184,22.680986],[121.51082,22.681297]]],[[[123.544254,25.723924],[123.544133,25.724288],[123.544595,25.72438],[123.544254,25.723924]]],[[[119.409507,23.213728],[119.411485,23.217722],[119.439923,23.222947],[119.448707,23.220139],[119.4447,23.200929],[119.433653,23.197869],[119.430052,23.188059],[119.415254,23.192607],[119.41921,23.202161],[119.409507,23.213728]]],[[[123.566746,25.754905],[123.567504,25.755699],[123.567667,25.75544],[123.566746,25.754905]]],[[[119.596485,23.617321],[119.607857,23.622519],[119.614277,23.620317],[119.61437,23.614081],[119.604006,23.608762],[119.596485,23.617321]]],[[[119.664646,23.260083],[119.670684,23.263866],[119.67997,23.261803],[119.671716,23.243957],[119.664838,23.250949],[119.664646,23.260083]]],[[[119.501309,23.275658],[119.502983,23.276776],[119.50442,23.275888],[119.504139,23.275598],[119.501309,23.275658]]],[[[121.579782,22.078786],[121.58158,22.080353],[121.582974,22.080134],[121.582567,22.078176],[121.579782,22.078786]]],[[[120.001634,23.472101],[120.005062,23.488758],[120.049902,23.543888],[120.055821,23.547618],[120.057123,23.545334],[120.039036,23.523647],[120.008157,23.473189],[120.004342,23.46897],[120.001634,23.472101]]],[[[123.490582,25.740283],[123.49041,25.740508],[123.490727,25.740553],[123.490582,25.740283]]],[[[119.608106,23.249257],[119.612362,23.253414],[119.622047,23.252681],[119.621412,23.246127],[119.61718,23.244365],[119.608106,23.249257]]],[[[119.656189,23.261482],[119.657907,23.26451],[119.661683,23.264725],[119.660578,23.260231],[119.656189,23.261482]]],[[[121.578376,22.07872],[121.578972,22.08086],[121.579707,22.079043],[121.578376,22.07872]]],[[[123.490692,25.740641],[123.490548,25.740885],[123.490881,25.740855],[123.490692,25.740641]]],[[[119.654046,23.660916],[119.662362,23.664095],[119.666837,23.66192],[119.660821,23.658006],[119.654046,23.660916]]],[[[120.343726,22.330603],[120.350857,22.340113],[120.35399,22.352227],[120.369445,22.36151],[120.379608,22.362473],[120.389127,22.35619],[120.392455,22.349262],[120.387561,22.339659],[120.359768,22.319898],[120.347401,22.321939],[120.343726,22.330603]]],[[[119.670636,23.682853],[119.670452,23.68484],[119.671418,23.683123],[119.670636,23.682853]]],[[[119.60113,23.78565],[119.600331,23.787478],[119.601071,23.787652],[119.60113,23.78565]]],[[[119.33458,23.318524],[119.335315,23.322875],[119.336943,23.322969],[119.338728,23.317866],[119.33458,23.318524]]],[[[119.652122,23.690554],[119.651778,23.693962],[119.653137,23.690781],[119.652122,23.690554]]],[[[119.66494,23.667249],[119.664793,23.669201],[119.665562,23.668008],[119.66494,23.667249]]],[[[119.564855,23.61869],[119.568225,23.623041],[119.571597,23.618582],[119.570895,23.616899],[119.564855,23.61869]]],[[[123.54502,25.727835],[123.545166,25.728123],[123.545307,25.728089],[123.54502,25.727835]]],[[[123.555986,25.721294],[123.555833,25.721487],[123.555871,25.721521],[123.555986,25.721294]]],[[[121.602565,21.952752],[121.613669,21.955535],[121.614577,21.945611],[121.607013,21.944188],[121.602565,21.952752]]],[[[119.671608,23.687667],[119.671001,23.689274],[119.672319,23.688583],[119.671608,23.687667]]],[[[123.487524,25.749811],[123.487852,25.750201],[123.487888,25.749881],[123.487524,25.749811]]],[[[122.071791,25.6288],[122.073814,25.63249],[122.080854,25.634025],[122.084182,25.633735],[122.085655,25.629606],[122.078761,25.622451],[122.071791,25.6288]]],[[[119.630512,23.645136],[119.631592,23.651286],[119.636656,23.651464],[119.636314,23.64769],[119.630512,23.645136]]],[[[123.489056,25.740354],[123.489099,25.740469],[123.489147,25.740376],[123.489056,25.740354]]],[[[120.044175,23.514421],[120.059683,23.5382],[120.070366,23.540758],[120.047287,23.515848],[120.044175,23.514421]]],[[[123.489167,25.740362],[123.489213,25.740449],[123.489243,25.74036],[123.489167,25.740362]]],[[[123.543272,25.722853],[123.543298,25.72314],[123.543398,25.722885],[123.543272,25.722853]]],[[[119.51344,23.509939],[119.515732,23.515145],[119.522421,23.514572],[119.519936,23.50798],[119.51344,23.509939]]],[[[123.492827,25.741593],[123.492715,25.741833],[123.49289,25.7418],[123.492827,25.741593]]],[[[123.490298,25.740478],[123.49023,25.740854],[123.490408,25.740886],[123.490298,25.740478]]],[[[119.594197,23.691716],[119.595566,23.693823],[119.594828,23.69147],[119.594197,23.691716]]],[[[119.588435,23.594638],[119.588322,23.596246],[119.589669,23.596434],[119.588435,23.594638]]],[[[119.501251,23.276222],[119.501623,23.276844],[119.501892,23.276579],[119.501251,23.276222]]],[[[119.502762,23.272029],[119.509929,23.272762],[119.510834,23.266722],[119.504425,23.26814],[119.502762,23.272029]]],[[[119.596947,23.585705],[119.596853,23.587126],[119.598555,23.586976],[119.596947,23.585705]]],[[[119.549931,23.68517],[119.554385,23.694973],[119.568296,23.69852],[119.571835,23.689209],[119.554668,23.680015],[119.549931,23.68517]]],[[[123.490843,25.740579],[123.490773,25.740683],[123.49091,25.74074],[123.490843,25.740579]]],[[[123.488539,25.740189],[123.488739,25.740384],[123.488847,25.740277],[123.488539,25.740189]]],[[[123.461399,25.734803],[123.461562,25.735295],[123.461815,25.734981],[123.461399,25.734803]]],[[[123.545035,25.723812],[123.544912,25.723903],[123.545055,25.723918],[123.545035,25.723812]]],[[[123.54295,25.722816],[123.542972,25.723018],[123.543098,25.722975],[123.54295,25.722816]]],[[[119.609994,23.710382],[119.60794,23.712573],[119.609664,23.713776],[119.609994,23.710382]]],[[[119.518791,23.252492],[119.519338,23.253908],[119.519789,23.252906],[119.518791,23.252492]]],[[[123.687554,25.919836],[123.687497,25.920101],[123.68768,25.919858],[123.687554,25.919836]]],[[[123.689083,25.92173],[123.689145,25.921946],[123.6893,25.921836],[123.689083,25.92173]]],[[[123.476399,25.740068],[123.476175,25.740417],[123.476552,25.740409],[123.476399,25.740068]]],[[[123.542251,25.731794],[123.542337,25.732078],[123.542473,25.731944],[123.542251,25.731794]]],[[[121.513662,22.680935],[121.513551,22.68135],[121.513894,22.681146],[121.513662,22.680935]]],[[[123.488905,25.740382],[123.488932,25.740455],[123.488973,25.74041],[123.488905,25.740382]]],[[[123.542348,25.731496],[123.542417,25.731667],[123.542526,25.731556],[123.542348,25.731496]]],[[[122.089694,25.487223],[122.091664,25.494433],[122.103612,25.49959],[122.113805,25.494982],[122.117036,25.484168],[122.112926,25.476493],[122.100762,25.474182],[122.093425,25.477873],[122.089694,25.487223]]],[[[123.685972,25.9262],[123.686074,25.926361],[123.686169,25.926252],[123.685972,25.9262]]],[[[123.544561,25.724424],[123.54447,25.724571],[123.544616,25.724572],[123.544561,25.724424]]],[[[121.92971,25.429537],[121.931696,25.435304],[121.944461,25.438425],[121.952686,25.431239],[121.952404,25.421216],[121.946116,25.416961],[121.933493,25.418852],[121.92971,25.429537]]],[[[119.651164,23.688365],[119.651879,23.689938],[119.651993,23.68865],[119.651164,23.688365]]],[[[119.666778,23.681064],[119.66691,23.682208],[119.667459,23.681137],[119.666778,23.681064]]],[[[123.68622,25.9268],[123.686321,25.926937],[123.686376,25.926821],[123.68622,25.9268]]],[[[123.542959,25.779821],[123.543017,25.780008],[123.543112,25.779886],[123.542959,25.779821]]],[[[123.48823,25.74013],[123.488344,25.740237],[123.48842,25.740129],[123.48823,25.74013]]],[[[123.556349,25.722078],[123.556366,25.722225],[123.55646,25.722106],[123.556349,25.722078]]],[[[123.556674,25.721822],[123.556593,25.721962],[123.556724,25.721963],[123.556674,25.721822]]],[[[123.556032,25.721692],[123.556018,25.721815],[123.556114,25.721751],[123.556032,25.721692]]],[[[123.576951,25.760119],[123.579911,25.765151],[123.582466,25.763554],[123.580843,25.756856],[123.576951,25.760119]]],[[[119.567125,23.710535],[119.565654,23.712617],[119.567743,23.712383],[119.567125,23.710535]]],[[[121.511617,22.680161],[121.511971,22.680641],[121.512082,22.680104],[121.511617,22.680161]]],[[[119.341949,23.307905],[119.341852,23.309501],[119.342305,23.307687],[119.341949,23.307905]]],[[[123.556326,25.785967],[123.562046,25.788642],[123.565108,25.783463],[123.557806,25.783176],[123.556326,25.785967]]],[[[123.686833,25.919988],[123.686791,25.920099],[123.686867,25.92005],[123.686833,25.919988]]],[[[121.51013,22.68143],[121.510295,22.681734],[121.510371,22.681499],[121.51013,22.68143]]],[[[121.50738,22.649826],[121.507457,22.650213],[121.507771,22.649973],[121.50738,22.649826]]],[[[121.577368,22.078478],[121.577523,22.078864],[121.577614,22.07873],[121.577368,22.078478]]],[[[121.782903,25.194693],[121.783648,25.195724],[121.784049,25.194942],[121.782903,25.194693]]],[[[119.595442,23.802434],[119.594588,23.806056],[119.597473,23.80489],[119.595442,23.802434]]],[[[119.677536,23.619338],[119.677395,23.622252],[119.67931,23.620699],[119.677536,23.619338]]],[[[119.347729,23.297578],[119.345637,23.301458],[119.349814,23.299766],[119.347729,23.297578]]],[[[120.817769,21.76261],[120.815884,21.765757],[120.819091,21.76546],[120.817769,21.76261]]],[[[120.814745,21.755605],[120.81743,21.757812],[120.820002,21.755538],[120.818481,21.754118],[120.814745,21.755605]]],[[[123.545579,25.789008],[123.548497,25.794247],[123.551109,25.792205],[123.549749,25.78483],[123.547049,25.783872],[123.545579,25.789008]]],[[[119.671952,23.689742],[119.672099,23.690262],[119.672187,23.68977],[119.671952,23.689742]]],[[[121.578259,22.080853],[121.578055,22.081304],[121.57864,22.081042],[121.578259,22.080853]]],[[[121.897343,24.596787],[121.898785,24.598263],[121.899848,24.597165],[121.897343,24.596787]]],[[[119.599368,23.792856],[119.600367,23.795374],[119.601663,23.793217],[119.599368,23.792856]]],[[[123.506624,25.734944],[123.506095,25.735934],[123.506888,25.735626],[123.506624,25.734944]]],[[[119.630248,23.640385],[119.630037,23.64152],[119.630934,23.641018],[119.630248,23.640385]]],[[[121.511279,22.680023],[121.511121,22.680306],[121.511311,22.680275],[121.511279,22.680023]]]]}}]}