{"type":"FeatureCollection","features":[{"type":"Feature","properties":{"id":"cn:81","name":"香港特别行政区","level":0},"geometry":{"type":"MultiPolygon","coordinates":[[[[113.837984,22.229573],[113.841482,22.235571],[113.847576,22.237708],[113.848132,22.243868],[113.858635,22.248194],[113.859417,22.252861],[113.852168,22.251955],[113.850996,22.257346],[113.858809,22.261702],[113.863948,22.260005],[113.869277,22.26963],[113.884061,22.273824],[113.892203,22.284979],[113.890215,22.295268],[113.894226,22.304252],[113.888768,22.310078],[113.899201,22.316949],[113.896883,22.321168],[113.878826,22.315366],[113.875926,22.322313],[113.881394,22.325958],[113.918564,22.336469],[113.925346,22.330258],[113.939646,22.325273],[113.964623,22.324188],[113.9636,22.313658],[113.958434,22.308716],[113.944998,22.30746],[113.950415,22.301428],[114.017681,22.340665],[114.021127,22.350181],[114.015893,22.356437],[113.975007,22.36902],[113.955546,22.365632],[113.951526,22.362378],[113.954375,22.356241],[113.952185,22.355574],[113.936535,22.358286],[113.925919,22.364048],[113.913427,22.374496],[113.91598,22.383953],[113.910789,22.400516],[113.900363,22.405774],[113.913471,22.42128],[113.93736,22.42922],[113.952856,22.450976],[113.972743,22.459774],[113.981016,22.474071],[113.99368,22.485112],[113.994826,22.493121],[114.009305,22.491393],[114.01618,22.483378],[114.019948,22.483338],[114.021162,22.49054],[114.027847,22.495512],[114.024115,22.505859],[114.054871,22.503452],[114.064004,22.516489],[114.071879,22.518184],[114.077136,22.515165],[114.082512,22.518589],[114.085216,22.523679],[114.078443,22.529589],[114.090168,22.53677],[114.104466,22.534946],[114.112166,22.529622],[114.130425,22.541773],[114.148098,22.541842],[114.151692,22.54671],[114.149575,22.548658],[114.151979,22.554553],[114.156723,22.555019],[114.161432,22.561908],[114.163536,22.559177],[114.1772,22.559726],[114.180967,22.554106],[114.200929,22.557573],[114.218143,22.555829],[114.225916,22.548795],[114.227716,22.542899],[114.218967,22.541345],[114.210807,22.532552],[114.209445,22.528207],[114.210287,22.526679],[114.218255,22.528437],[114.22118,22.531703],[114.227301,22.530829],[114.242188,22.550206],[114.260434,22.549648],[114.257735,22.544887],[114.268585,22.535],[114.263828,22.526984],[114.272673,22.5265],[114.27421,22.530575],[114.28164,22.529408],[114.279766,22.523227],[114.286797,22.525215],[114.278507,22.511448],[114.292777,22.508956],[114.294384,22.506126],[114.304097,22.500149],[114.331987,22.512339],[114.336988,22.510896],[114.337387,22.507611],[114.306979,22.481479],[114.277187,22.469056],[114.265252,22.461749],[114.257794,22.452626],[114.24835,22.448363],[114.242899,22.44924],[114.241189,22.456907],[114.229253,22.469433],[114.213706,22.468407],[114.209705,22.460378],[114.22046,22.456387],[114.217326,22.452877],[114.223672,22.451345],[114.231832,22.459372],[114.235017,22.457499],[114.234028,22.454546],[114.225807,22.448446],[114.21513,22.446712],[114.207196,22.448323],[114.207378,22.453945],[114.202213,22.453945],[114.198281,22.444894],[114.200407,22.439998],[114.219479,22.429492],[114.233333,22.431085],[114.236892,22.437781],[114.240538,22.438706],[114.272812,22.438116],[114.279167,22.449431],[114.29165,22.459357],[114.29875,22.45953],[114.305191,22.471354],[114.320876,22.481614],[114.324027,22.480123],[114.325199,22.473546],[114.331224,22.47409],[114.3321,22.465429],[114.337144,22.468902],[114.33947,22.479629],[114.342995,22.479709],[114.34559,22.474967],[114.348906,22.462664],[114.341206,22.457721],[114.342351,22.440449],[114.352378,22.439218],[114.351362,22.45072],[114.359028,22.453954],[114.359852,22.462542],[114.370521,22.456464],[114.368403,22.445271],[114.370807,22.439433],[114.382101,22.438003],[114.392075,22.441592],[114.40112,22.436269],[114.400477,22.423422],[114.40638,22.411653],[114.398072,22.410531],[114.390989,22.418186],[114.385295,22.418265],[114.375417,22.401193],[114.391554,22.388014],[114.391623,22.366512],[114.388507,22.364628],[114.382117,22.368276],[114.381076,22.363153],[114.376371,22.360108],[114.379626,22.357748],[114.374514,22.353162],[114.367508,22.352523],[114.365624,22.348804],[114.360581,22.350386],[114.362326,22.341954],[114.357821,22.335162],[114.354488,22.336426],[114.350729,22.350747],[114.342786,22.345918],[114.336501,22.351341],[114.336371,22.356564],[114.32993,22.364164],[114.33315,22.375907],[114.317751,22.381918],[114.319115,22.387862],[114.316067,22.391857],[114.310373,22.39117],[114.310538,22.384477],[114.305164,22.383819],[114.297429,22.38408],[114.285216,22.392606],[114.278377,22.38955],[114.274696,22.368978],[114.279583,22.355258],[114.276292,22.349301],[114.269695,22.348738],[114.273593,22.331532],[114.27849,22.325948],[114.288871,22.323237],[114.294983,22.311762],[114.303975,22.311527],[114.312916,22.297365],[114.311588,22.292471],[114.298549,22.2834],[114.30434,22.280221],[114.304045,22.273654],[114.308254,22.268077],[114.299609,22.259674],[114.284175,22.270544],[114.277812,22.262361],[114.271483,22.262521],[114.263064,22.273608],[114.262126,22.280834],[114.265894,22.289238],[114.260208,22.297239],[114.256675,22.297107],[114.245563,22.285817],[114.244713,22.275531],[114.258281,22.261493],[114.256354,22.249963],[114.250719,22.244405],[114.254999,22.231861],[114.260607,22.230758],[114.253003,22.226779],[114.256813,22.212944],[114.261813,22.208613],[114.260816,22.203603],[114.242126,22.20674],[114.23348,22.216681],[114.220928,22.210023],[114.221084,22.205004],[114.224574,22.196424],[114.212786,22.19374],[114.207768,22.21246],[114.196995,22.209995],[114.198106,22.218942],[114.190807,22.223715],[114.195754,22.225837],[114.195164,22.235388],[114.181049,22.242302],[114.174374,22.228528],[114.160589,22.228977],[114.15736,22.233293],[114.148514,22.237827],[114.141309,22.245034],[114.133479,22.249194],[114.115364,22.274913],[114.118758,22.283988],[114.139088,22.29577],[114.141223,22.300739],[114.138818,22.30603],[114.124123,22.31327],[114.115902,22.323591],[114.089765,22.323717],[114.076179,22.332331],[114.064955,22.329764],[114.051856,22.307962],[114.030007,22.303675],[114.02821,22.292253],[114.02196,22.2891],[114.024165,22.265321],[114.014538,22.264979],[114.000614,22.270995],[113.99978,22.267166],[114.012931,22.252871],[114.001977,22.247205],[113.999694,22.242257],[114.021438,22.230916],[114.016612,22.223509],[113.991569,22.209143],[113.980917,22.214071],[113.974104,22.223726],[113.976169,22.233053],[113.970761,22.233714],[113.950701,22.228917],[113.942914,22.221374],[113.93274,22.218381],[113.930718,22.207953],[113.905327,22.206172],[113.895172,22.214729],[113.89433,22.218819],[113.890111,22.219171],[113.871811,22.202873],[113.859625,22.201686],[113.852454,22.195724],[113.844451,22.194141],[113.84584,22.203217],[113.841083,22.208813],[113.842246,22.215323],[113.837984,22.229573]]],[[[114.017046,22.201097],[114.02827,22.20784],[114.021838,22.213058],[114.026092,22.216838],[114.025623,22.220851],[114.035128,22.223539],[114.032437,22.218748],[114.0361,22.216916],[114.030917,22.21528],[114.029711,22.211499],[114.040996,22.205416],[114.036499,22.200547],[114.030067,22.202475],[114.021768,22.195846],[114.017046,22.201097]]],[[[114.294374,22.513268],[114.30138,22.5137],[114.304183,22.510686],[114.309089,22.517517],[114.309617,22.526406],[114.321719,22.516766],[114.310642,22.50801],[114.305902,22.509529],[114.299696,22.504299],[114.295929,22.506577],[114.297682,22.509186],[114.294374,22.513268]]],[[[114.100315,22.217637],[114.11039,22.225615],[114.105815,22.234856],[114.118167,22.241464],[114.122317,22.239305],[114.120841,22.230279],[114.126458,22.22596],[114.126198,22.222415],[114.130649,22.218836],[114.135225,22.221859],[114.137343,22.218793],[114.136926,22.215068],[114.127776,22.207727],[114.128897,22.20453],[114.149886,22.21239],[114.161111,22.209367],[114.158003,22.203064],[114.151266,22.203495],[114.143922,22.196759],[114.150832,22.18173],[114.147378,22.180522],[114.135546,22.189072],[114.138315,22.177499],[114.131318,22.181731],[114.126136,22.177586],[114.115337,22.180435],[114.11335,22.186481],[114.1194,22.192612],[114.11966,22.214205],[114.115945,22.218955],[114.114131,22.214118],[114.102808,22.210813],[114.100315,22.217637]]],[[[114.285329,22.53357],[114.288315,22.539171],[114.293854,22.539557],[114.286189,22.54674],[114.290894,22.548425],[114.287943,22.552617],[114.290417,22.555464],[114.293655,22.551864],[114.317457,22.550163],[114.311866,22.547016],[114.308351,22.548526],[114.303924,22.544288],[114.298785,22.547587],[114.295,22.54704],[114.294418,22.544279],[114.29848,22.539939],[114.305738,22.536245],[114.30434,22.531656],[114.299279,22.532411],[114.299609,22.536603],[114.294279,22.533394],[114.285329,22.53357]]],[[[113.982297,22.194268],[113.987376,22.202203],[113.994876,22.193437],[113.99005,22.188572],[113.987176,22.191435],[113.982297,22.194268]]],[[[114.30013,22.378765],[114.307351,22.381389],[114.317517,22.379017],[114.319913,22.361091],[114.328211,22.356087],[114.323836,22.342265],[114.309106,22.343704],[114.303073,22.350674],[114.305312,22.367502],[114.301753,22.367875],[114.304322,22.372706],[114.30013,22.378765]]],[[[113.905249,22.179831],[113.906699,22.18809],[113.921013,22.179722],[113.91722,22.180319],[113.91656,22.177532],[113.912358,22.18174],[113.905249,22.179831]]],[[[114.279558,22.245693],[114.28231,22.253466],[114.296463,22.258786],[114.29859,22.247713],[114.295794,22.241233],[114.290524,22.241198],[114.288092,22.237343],[114.287281,22.241469],[114.279558,22.245693]]],[[[114.251143,22.163495],[114.255628,22.175296],[114.266348,22.181094],[114.27381,22.173105],[114.274914,22.163037],[114.266244,22.16177],[114.264874,22.163901],[114.260506,22.156702],[114.25522,22.155086],[114.257307,22.160295],[114.252163,22.161352],[114.253772,22.164424],[114.251143,22.163495]]],[[[113.887371,22.347427],[113.885311,22.348897],[113.886663,22.348798],[113.887371,22.347427]]],[[[113.899086,22.160709],[113.909007,22.164014],[113.910597,22.170115],[113.917394,22.167704],[113.913322,22.166104],[113.915223,22.159808],[113.903079,22.156451],[113.899086,22.160709]]],[[[114.026187,22.256634],[114.029156,22.259208],[114.044937,22.257339],[114.044312,22.250319],[114.047516,22.246334],[114.045163,22.241187],[114.040397,22.24296],[114.03794,22.249736],[114.026187,22.256634]]],[[[114.360293,22.318621],[114.365992,22.321367],[114.367965,22.318985],[114.371086,22.310886],[114.367672,22.306476],[114.360293,22.318621]]],[[[114.292203,22.327926],[114.294619,22.332833],[114.302187,22.325755],[114.30213,22.321586],[114.295619,22.32285],[114.292203,22.327926]]],[[[114.031587,22.289178],[114.044477,22.292806],[114.046048,22.29056],[114.040641,22.286072],[114.045762,22.287231],[114.04952,22.282686],[114.038132,22.280536],[114.035363,22.287644],[114.031587,22.289178]]],[[[114.286701,22.36736],[114.29079,22.37437],[114.29651,22.374514],[114.293593,22.372626],[114.295139,22.36862],[114.298116,22.365987],[114.297569,22.353339],[114.294626,22.353654],[114.286701,22.36736]]],[[[114.315355,22.338248],[114.317456,22.340899],[114.326232,22.340746],[114.331597,22.333011],[114.331015,22.328385],[114.326996,22.325385],[114.319999,22.32656],[114.315355,22.338248]]],[[[114.353099,22.480964],[114.358507,22.486436],[114.364826,22.484318],[114.36388,22.479692],[114.367466,22.474674],[114.363168,22.46581],[114.358116,22.465614],[114.353099,22.480964]]],[[[113.897949,22.171884],[113.901569,22.17357],[113.902828,22.172515],[113.901785,22.171339],[113.897949,22.171884]]],[[[114.307265,22.532231],[114.31046,22.535518],[114.316363,22.530393],[114.320199,22.538097],[114.320373,22.523085],[114.308238,22.528235],[114.307265,22.532231]]],[[[114.243193,22.1879],[114.255208,22.190378],[114.257265,22.184086],[114.250946,22.179107],[114.246136,22.181225],[114.244721,22.178174],[114.243193,22.1879]]],[[[114.181683,22.234824],[114.183428,22.236605],[114.18986,22.235429],[114.184478,22.231894],[114.181683,22.234824]]],[[[114.347829,22.257753],[114.352369,22.261291],[114.352595,22.253804],[114.348315,22.253612],[114.347829,22.257753]]],[[[114.359696,22.331141],[114.360929,22.33903],[114.367308,22.339973],[114.368142,22.329589],[114.359696,22.331141]]],[[[113.876769,22.380257],[113.878645,22.382473],[113.885467,22.379797],[113.882941,22.370064],[113.880233,22.370813],[113.88085,22.377887],[113.876769,22.380257]]],[[[114.318674,22.375421],[114.318352,22.376389],[114.319183,22.376359],[114.318674,22.375421]]],[[[114.222582,22.439145],[114.221654,22.441118],[114.222097,22.441366],[114.222582,22.439145]]],[[[114.345451,22.316237],[114.349687,22.325496],[114.357551,22.326938],[114.34875,22.312304],[114.345451,22.316237]]],[[[114.320243,22.372914],[114.321171,22.377322],[114.32927,22.374127],[114.328871,22.365685],[114.324895,22.37379],[114.323073,22.370535],[114.320243,22.372914]]],[[[114.354557,22.500388],[114.357465,22.50451],[114.365425,22.505017],[114.360451,22.496074],[114.354557,22.500388]]],[[[114.345703,22.263496],[114.346328,22.268133],[114.350789,22.270848],[114.348931,22.263788],[114.345703,22.263496]]],[[[114.372378,22.328167],[114.372421,22.332245],[114.378272,22.327827],[114.372378,22.328167]]],[[[114.046517,22.259491],[114.050241,22.264529],[114.056491,22.263544],[114.050936,22.256978],[114.046517,22.259491]]],[[[114.295404,22.546048],[114.295652,22.546813],[114.295835,22.545907],[114.295404,22.546048]]],[[[114.282447,22.185458],[114.288142,22.190021],[114.2892,22.181176],[114.284053,22.181327],[114.282447,22.185458]]],[[[113.923973,22.155158],[113.922281,22.15527],[113.923556,22.156004],[113.923973,22.155158]]],[[[114.051316,22.205375],[114.051144,22.20582],[114.051395,22.20572],[114.051316,22.205375]]],[[[114.219287,22.462323],[114.222739,22.463434],[114.222692,22.460271],[114.22042,22.459907],[114.219287,22.462323]]],[[[114.316822,22.38435],[114.31618,22.388168],[114.318541,22.387896],[114.316822,22.38435]]],[[[113.923435,22.179498],[113.925909,22.179321],[113.926109,22.177971],[113.924945,22.177513],[113.923435,22.179498]]],[[[114.311623,22.541509],[114.311506,22.542323],[114.312038,22.54204],[114.311623,22.541509]]],[[[114.423221,22.54811],[114.424991,22.552808],[114.43059,22.554579],[114.431605,22.54735],[114.441692,22.542398],[114.441727,22.539468],[114.437639,22.536974],[114.428819,22.539108],[114.423221,22.54811]]],[[[114.279088,22.381829],[114.282717,22.380579],[114.282543,22.3786],[114.279705,22.379713],[114.279088,22.381829]]],[[[113.888245,22.346622],[113.891526,22.346425],[113.890537,22.342171],[113.888757,22.343111],[113.888245,22.346622]]],[[[114.320122,22.32559],[114.319974,22.326209],[114.320563,22.325572],[114.320122,22.32559]]],[[[113.890164,22.340851],[113.890394,22.341752],[113.890977,22.341174],[113.890164,22.340851]]],[[[114.284288,22.374587],[114.286414,22.376332],[114.288568,22.376566],[114.286518,22.373739],[114.284288,22.374587]]],[[[114.300351,22.514125],[114.300747,22.514818],[114.301071,22.514122],[114.300351,22.514125]]],[[[114.137595,22.243335],[114.140467,22.243987],[114.141544,22.243669],[114.139608,22.242818],[114.137595,22.243335]]],[[[114.267361,22.553783],[114.270972,22.551421],[114.270825,22.54962],[114.268611,22.551271],[114.267361,22.553783]]],[[[114.275138,22.531842],[114.275312,22.535],[114.277508,22.533147],[114.275138,22.531842]]],[[[114.350876,22.271],[114.350771,22.272161],[114.351519,22.271119],[114.350876,22.271]]],[[[114.258394,22.545143],[114.261102,22.54687],[114.26243,22.546226],[114.260963,22.544748],[114.258394,22.545143]]],[[[114.286042,22.518869],[114.28579,22.521532],[114.289323,22.519866],[114.286042,22.518869]]],[[[113.874729,22.355362],[113.875459,22.356725],[113.875511,22.355409],[113.874729,22.355362]]],[[[114.31828,22.299629],[114.318228,22.300388],[114.318845,22.30029],[114.31828,22.299629]]],[[[114.331867,22.477348],[114.330598,22.480616],[114.331388,22.480892],[114.331867,22.477348]]],[[[114.395008,22.447665],[114.39467,22.449481],[114.396284,22.448372],[114.395008,22.447665]]],[[[113.966752,22.3287],[113.965927,22.334205],[113.969269,22.331559],[113.966752,22.3287]]],[[[114.0567,22.288967],[114.059017,22.289898],[114.060848,22.288409],[114.058383,22.287494],[114.0567,22.288967]]],[[[113.904945,22.173131],[113.904824,22.174889],[113.905778,22.173355],[113.904945,22.173131]]],[[[114.36587,22.321857],[114.365642,22.322807],[114.366738,22.321703],[114.36587,22.321857]]],[[[114.260825,22.551081],[114.262422,22.552118],[114.262786,22.551496],[114.260825,22.551081]]],[[[114.257699,22.446141],[114.25796,22.446927],[114.25796,22.446085],[114.257699,22.446141]]],[[[114.29941,22.375151],[114.302057,22.374859],[114.302447,22.373103],[114.300399,22.372716],[114.29941,22.375151]]],[[[114.369999,22.331595],[114.370971,22.334608],[114.371988,22.332235],[114.369999,22.331595]]],[[[114.110642,22.283667],[114.112716,22.286401],[114.115493,22.284669],[114.114288,22.283352],[114.110642,22.283667]]],[[[114.184991,22.213407],[114.18513,22.217772],[114.188498,22.215171],[114.184991,22.213407]]],[[[114.305234,22.183854],[114.305138,22.188036],[114.306432,22.188886],[114.305234,22.183854]]],[[[114.288585,22.53263],[114.288142,22.533072],[114.288897,22.533014],[114.288585,22.53263]]],[[[114.227308,22.531467],[114.227187,22.532313],[114.227613,22.532372],[114.227308,22.531467]]],[[[114.073774,22.284041],[114.075927,22.286282],[114.080154,22.286498],[114.078965,22.281922],[114.073774,22.284041]]],[[[114.222803,22.206232],[114.222794,22.207668],[114.223966,22.206221],[114.222803,22.206232]]],[[[113.924702,22.176441],[113.924702,22.177209],[113.925092,22.17637],[113.924702,22.176441]]],[[[114.210503,22.527149],[114.211059,22.528385],[114.211623,22.527304],[114.210503,22.527149]]],[[[114.334028,22.334119],[114.334687,22.337304],[114.335668,22.334627],[114.334028,22.334119]]],[[[114.368776,22.32603],[114.369019,22.326887],[114.36947,22.326289],[114.368776,22.32603]]],[[[114.311588,22.301445],[114.311527,22.302745],[114.312126,22.30158],[114.311588,22.301445]]],[[[114.320338,22.30039],[114.320251,22.301727],[114.321415,22.300581],[114.320338,22.30039]]],[[[113.837655,22.214848],[113.835796,22.218038],[113.838834,22.217151],[113.837655,22.214848]]],[[[114.249816,22.159428],[114.251079,22.161773],[114.251955,22.160963],[114.249816,22.159428]]],[[[114.28057,22.242479],[114.280691,22.242882],[114.281118,22.242465],[114.28057,22.242479]]],[[[114.305773,22.536896],[114.307101,22.542275],[114.310035,22.541158],[114.305773,22.536896]]],[[[114.304393,22.500879],[114.304488,22.501756],[114.305104,22.501647],[114.304393,22.500879]]],[[[114.287551,22.45901],[114.287943,22.459309],[114.28796,22.459107],[114.287551,22.45901]]],[[[114.313168,22.38902],[114.31361,22.390137],[114.313949,22.38891],[114.313168,22.38902]]],[[[114.314314,22.383746],[114.3148,22.384809],[114.314939,22.383721],[114.314314,22.383746]]],[[[114.295459,22.370006],[114.294974,22.372149],[114.296736,22.370957],[114.295459,22.370006]]],[[[114.365737,22.347654],[114.36585,22.348236],[114.366189,22.347712],[114.365737,22.347654]]],[[[114.310095,22.304422],[114.310303,22.30498],[114.310303,22.304323],[114.310095,22.304422]]],[[[114.255277,22.226206],[114.258342,22.226839],[114.259565,22.225572],[114.257299,22.225043],[114.255277,22.226206]]],[[[114.134582,22.223091],[114.134712,22.226414],[114.136293,22.225609],[114.134582,22.223091]]],[[[113.916378,22.162129],[113.916708,22.163244],[113.917028,22.162241],[113.916378,22.162129]]],[[[114.290755,22.463093],[114.290989,22.464144],[114.29112,22.463175],[114.290755,22.463093]]],[[[114.315885,22.388667],[114.316041,22.388988],[114.316146,22.388774],[114.315885,22.388667]]],[[[114.288775,22.378107],[114.289314,22.379796],[114.289549,22.378263],[114.288775,22.378107]]],[[[114.391389,22.362591],[114.391822,22.365011],[114.39243,22.362437],[114.391389,22.362591]]],[[[114.287022,22.362345],[114.286623,22.364296],[114.287491,22.364208],[114.287022,22.362345]]],[[[114.367986,22.325203],[114.367699,22.326269],[114.369235,22.32549],[114.367986,22.325203]]],[[[114.327005,22.322474],[114.327291,22.323239],[114.327569,22.322769],[114.327005,22.322474]]],[[[113.946256,22.21444],[113.945944,22.215371],[113.946612,22.215269],[113.946256,22.21444]]],[[[114.304018,22.181581],[114.302499,22.183033],[114.304557,22.183313],[114.304018,22.181581]]],[[[113.983316,22.18764],[113.987067,22.190764],[113.989677,22.187939],[113.988614,22.18716],[113.983316,22.18764]]],[[[114.255747,22.55059],[114.255702,22.551581],[114.256138,22.551584],[114.255747,22.55059]]],[[[114.330746,22.539572],[114.331085,22.542582],[114.331432,22.539648],[114.330746,22.539572]]],[[[114.265564,22.54161],[114.265764,22.542611],[114.266181,22.541775],[114.265564,22.54161]]],[[[114.280026,22.532157],[114.280313,22.533168],[114.281102,22.532489],[114.280026,22.532157]]],[[[114.294513,22.514097],[114.294731,22.514657],[114.294783,22.514045],[114.294513,22.514097]]],[[[114.372092,22.482439],[114.370382,22.484387],[114.372899,22.482714],[114.372092,22.482439]]],[[[114.331996,22.474479],[114.331432,22.475818],[114.332395,22.475058],[114.331996,22.474479]]],[[[114.324531,22.366343],[114.324609,22.367628],[114.32545,22.366892],[114.324531,22.366343]]],[[[114.374652,22.338485],[114.374887,22.339353],[114.375721,22.338678],[114.374652,22.338485]]],[[[114.317005,22.303463],[114.316674,22.303949],[114.316883,22.304032],[114.317005,22.303463]]],[[[114.319001,22.300419],[114.318957,22.300759],[114.319218,22.300572],[114.319001,22.300419]]],[[[114.31342,22.274164],[114.314817,22.277981],[114.316093,22.274669],[114.31342,22.274164]]],[[[114.345737,22.253717],[114.34618,22.255501],[114.347638,22.253774],[114.345737,22.253717]]],[[[114.290303,22.187981],[114.290138,22.190269],[114.29058,22.19024],[114.290303,22.187981]]],[[[113.925492,22.175981],[113.925431,22.176399],[113.925735,22.176202],[113.925492,22.175981]]],[[[114.327214,22.362936],[114.326935,22.363432],[114.327333,22.363341],[114.327214,22.362936]]],[[[114.264826,22.552179],[114.264878,22.552751],[114.265182,22.552556],[114.264826,22.552179]]],[[[114.272161,22.535449],[114.272292,22.536252],[114.272535,22.535527],[114.272161,22.535449]]],[[[114.27296,22.532389],[114.272474,22.533339],[114.273082,22.533327],[114.27296,22.532389]]],[[[114.288047,22.525985],[114.287691,22.526627],[114.288307,22.526391],[114.288047,22.525985]]],[[[114.290911,22.509623],[114.290729,22.510284],[114.291137,22.510292],[114.290911,22.509623]]],[[[114.333992,22.479169],[114.333828,22.480653],[114.334505,22.479579],[114.333992,22.479169]]],[[[114.42763,22.465397],[114.427708,22.467072],[114.42869,22.464655],[114.42763,22.465397]]],[[[114.402031,22.435202],[114.401597,22.436107],[114.402291,22.436174],[114.402031,22.435202]]],[[[114.385928,22.401154],[114.386554,22.402344],[114.387057,22.401278],[114.385928,22.401154]]],[[[114.284566,22.389383],[114.28421,22.390397],[114.284948,22.389817],[114.284566,22.389383]]],[[[114.370129,22.344216],[114.368957,22.345564],[114.370216,22.345582],[114.370129,22.344216]]],[[[113.979946,22.334447],[113.980832,22.338614],[113.983358,22.340763],[113.982915,22.336387],[113.979946,22.334447]]],[[[113.978575,22.326483],[113.979035,22.32752],[113.979286,22.326325],[113.978575,22.326483]]],[[[114.367161,22.325296],[114.366745,22.326174],[114.367369,22.326111],[114.367161,22.325296]]],[[[114.318471,22.31106],[114.31868,22.312705],[114.319227,22.310963],[114.318471,22.31106]]],[[[114.309227,22.307402],[114.309227,22.307853],[114.3094,22.307471],[114.309227,22.307402]]],[[[114.310061,22.306821],[114.309843,22.30731],[114.310103,22.307157],[114.310061,22.306821]]],[[[114.308784,22.304545],[114.308654,22.30482],[114.308862,22.304713],[114.308784,22.304545]]],[[[114.310998,22.303113],[114.311432,22.304279],[114.311397,22.303066],[114.310998,22.303113]]],[[[114.317187,22.303311],[114.317318,22.303951],[114.317361,22.303191],[114.317187,22.303311]]],[[[114.117022,22.284615],[114.116943,22.28649],[114.11769,22.285064],[114.117022,22.284615]]],[[[114.366805,22.266254],[114.366857,22.26731],[114.367474,22.266739],[114.366805,22.266254]]],[[[114.369818,22.264652],[114.370052,22.266172],[114.370702,22.264546],[114.369818,22.264652]]],[[[114.267344,22.53809],[114.267622,22.538589],[114.267778,22.538103],[114.267344,22.53809]]],[[[114.401909,22.433277],[114.401718,22.433978],[114.402265,22.433726],[114.401909,22.433277]]],[[[114.386502,22.402459],[114.385312,22.404132],[114.386771,22.403568],[114.386502,22.402459]]],[[[114.282066,22.38571],[114.282239,22.386539],[114.282707,22.386072],[114.282066,22.38571]]],[[[114.299184,22.379318],[114.29947,22.380254],[114.299582,22.379363],[114.299184,22.379318]]],[[[114.289982,22.375158],[114.28993,22.376258],[114.290851,22.375386],[114.289982,22.375158]]],[[[114.301579,22.370829],[114.301233,22.37206],[114.30197,22.371425],[114.301579,22.370829]]],[[[113.887681,22.351247],[113.88637,22.353588],[113.888627,22.353612],[113.887681,22.351247]]],[[[114.309826,22.307508],[114.30967,22.307845],[114.309843,22.307745],[114.309826,22.307508]]],[[[114.345398,22.262428],[114.345104,22.263246],[114.345694,22.262921],[114.345398,22.262428]]],[[[114.237143,22.174671],[114.236901,22.175876],[114.237812,22.175084],[114.237143,22.174671]]],[[[113.907393,22.173168],[113.907228,22.173743],[113.907662,22.173344],[113.907393,22.173168]]],[[[114.387716,22.405461],[114.387612,22.406026],[114.388003,22.405763],[114.387716,22.405461]]],[[[114.351675,22.34185],[114.351987,22.342905],[114.352335,22.342104],[114.351675,22.34185]]],[[[114.310086,22.309136],[114.310025,22.309539],[114.310225,22.309431],[114.310086,22.309136]]],[[[114.312421,22.300833],[114.312187,22.301164],[114.312526,22.301104],[114.312421,22.300833]]],[[[114.28434,22.525716],[114.284322,22.526285],[114.284687,22.526022],[114.28434,22.525716]]],[[[114.329791,22.323639],[114.329739,22.323819],[114.329895,22.323756],[114.329791,22.323639]]],[[[114.367647,22.264328],[114.367864,22.264715],[114.367959,22.264285],[114.367647,22.264328]]]]}},{"type":"Feature","properties":{"id":"cn:8100","name":"香港特别行政区","level":1},"geometry":{"type":"MultiPolygon","coordinates":[[[[113.837984,22.229573],[113.841482,22.235571],[113.847576,22.237708],[113.848132,22.243868],[113.858635,22.248194],[113.859417,22.252861],[113.852168,22.251955],[113.850996,22.257346],[113.858809,22.261702],[113.863948,22.260005],[113.869277,22.26963],[113.884061,22.273824],[113.892203,22.284979],[113.890215,22.295268],[113.894226,22.304252],[113.888768,22.310078],[113.899201,22.316949],[113.896883,22.321168],[113.878826,22.315366],[113.875926,22.322313],[113.881394,22.325958],[113.918564,22.336469],[113.925346,22.330258],[113.939646,22.325273],[113.964623,22.324188],[113.9636,22.313658],[113.958434,22.308716],[113.944998,22.30746],[113.950415,22.301428],[114.017681,22.340665],[114.021127,22.350181],[114.015893,22.356437],[113.975007,22.36902],[113.955546,22.365632],[113.951526,22.362378],[113.954375,22.356241],[113.952185,22.355574],[113.936535,22.358286],[113.925919,22.364048],[113.913427,22.374496],[113.91598,22.383953],[113.910789,22.400516],[113.900363,22.405774],[113.913471,22.42128],[113.93736,22.42922],[113.952856,22.450976],[113.972743,22.459774],[113.981016,22.474071],[113.99368,22.485112],[113.994826,22.493121],[114.009305,22.491393],[114.01618,22.483378],[114.019948,22.483338],[114.021162,22.49054],[114.027847,22.495512],[114.024115,22.505859],[114.054871,22.503452],[114.064004,22.516489],[114.071879,22.518184],[114.077136,22.515165],[114.082512,22.518589],[114.085216,22.523679],[114.078443,22.529589],[114.090168,22.53677],[114.104466,22.534946],[114.112166,22.529622],[114.130425,22.541773],[114.148098,22.541842],[114.151692,22.54671],[114.149575,22.548658],[114.151979,22.554553],[114.156723,22.555019],[114.161432,22.561908],[114.163536,22.559177],[114.1772,22.559726],[114.180967,22.554106],[114.200929,22.557573],[114.218143,22.555829],[114.225916,22.548795],[114.227716,22.542899],[114.218967,22.541345],[114.210807,22.532552],[114.209445,22.528207],[114.210287,22.526679],[114.218255,22.528437],[114.22118,22.531703],[114.227301,22.530829],[114.242188,22.550206],[114.260434,22.549648],[114.257735,22.544887],[114.268585,22.535],[114.263828,22.526984],[114.272673,22.5265],[114.27421,22.530575],[114.28164,22.529408],[114.279766,22.523227],[114.286797,22.525215],[114.278507,22.511448],[114.292777,22.508956],[114.294384,22.506126],[114.304097,22.500149],[114.331987,22.512339],[114.336988,22.510896],[114.337387,22.507611],[114.306979,22.481479],[114.277187,22.469056],[114.265252,22.461749],[114.257794,22.452626],[114.24835,22.448363],[114.242899,22.44924],[114.241189,22.456907],[114.229253,22.469433],[114.213706,22.468407],[114.209705,22.460378],[114.22046,22.456387],[114.217326,22.452877],[114.223672,22.451345],[114.231832,22.459372],[114.235017,22.457499],[114.234028,22.454546],[114.225807,22.448446],[114.21513,22.446712],[114.207196,22.448323],[114.207378,22.453945],[114.202213,22.453945],[114.198281,22.444894],[114.200407,22.439998],[114.219479,22.429492],[114.233333,22.431085],[114.236892,22.437781],[114.240538,22.438706],[114.272812,22.438116],[114.279167,22.449431],[114.29165,22.459357],[114.29875,22.45953],[114.305191,22.471354],[114.320876,22.481614],[114.324027,22.480123],[114.325199,22.473546],[114.331224,22.47409],[114.3321,22.465429],[114.337144,22.468902],[114.33947,22.479629],[114.342995,22.479709],[114.34559,22.474967],[114.348906,22.462664],[114.341206,22.457721],[114.342351,22.440449],[114.352378,22.439218],[114.351362,22.45072],[114.359028,22.453954],[114.359852,22.462542],[114.370521,22.456464],[114.368403,22.445271],[114.370807,22.439433],[114.382101,22.438003],[114.392075,22.441592],[114.40112,22.436269],[114.400477,22.423422],[114.40638,22.411653],[114.398072,22.410531],[114.390989,22.418186],[114.385295,22.418265],[114.375417,22.401193],[114.391554,22.388014],[114.391623,22.366512],[114.388507,22.364628],[114.382117,22.368276],[114.381076,22.363153],[114.376371,22.360108],[114.379626,22.357748],[114.374514,22.353162],[114.367508,22.352523],[114.365624,22.348804],[114.360581,22.350386],[114.362326,22.341954],[114.357821,22.335162],[114.354488,22.336426],[114.350729,22.350747],[114.342786,22.345918],[114.336501,22.351341],[114.336371,22.356564],[114.32993,22.364164],[114.33315,22.375907],[114.317751,22.381918],[114.319115,22.387862],[114.316067,22.391857],[114.310373,22.39117],[114.310538,22.384477],[114.305164,22.383819],[114.297429,22.38408],[114.285216,22.392606],[114.278377,22.38955],[114.274696,22.368978],[114.279583,22.355258],[114.276292,22.349301],[114.269695,22.348738],[114.273593,22.331532],[114.27849,22.325948],[114.288871,22.323237],[114.294983,22.311762],[114.303975,22.311527],[114.312916,22.297365],[114.311588,22.292471],[114.298549,22.2834],[114.30434,22.280221],[114.304045,22.273654],[114.308254,22.268077],[114.299609,22.259674],[114.284175,22.270544],[114.277812,22.262361],[114.271483,22.262521],[114.263064,22.273608],[114.262126,22.280834],[114.265894,22.289238],[114.260208,22.297239],[114.256675,22.297107],[114.245563,22.285817],[114.244713,22.275531],[114.258281,22.261493],[114.256354,22.249963],[114.250719,22.244405],[114.254999,22.231861],[114.260607,22.230758],[114.253003,22.226779],[114.256813,22.212944],[114.261813,22.208613],[114.260816,22.203603],[114.242126,22.20674],[114.23348,22.216681],[114.220928,22.210023],[114.221084,22.205004],[114.224574,22.196424],[114.212786,22.19374],[114.207768,22.21246],[114.196995,22.209995],[114.198106,22.218942],[114.190807,22.223715],[114.195754,22.225837],[114.195164,22.235388],[114.181049,22.242302],[114.174374,22.228528],[114.160589,22.228977],[114.15736,22.233293],[114.148514,22.237827],[114.141309,22.245034],[114.133479,22.249194],[114.115364,22.274913],[114.118758,22.283988],[114.139088,22.29577],[114.141223,22.300739],[114.138818,22.30603],[114.124123,22.31327],[114.115902,22.323591],[114.089765,22.323717],[114.076179,22.332331],[114.064955,22.329764],[114.051856,22.307962],[114.030007,22.303675],[114.02821,22.292253],[114.02196,22.2891],[114.024165,22.265321],[114.014538,22.264979],[114.000614,22.270995],[113.99978,22.267166],[114.012931,22.252871],[114.001977,22.247205],[113.999694,22.242257],[114.021438,22.230916],[114.016612,22.223509],[113.991569,22.209143],[113.980917,22.214071],[113.974104,22.223726],[113.976169,22.233053],[113.970761,22.233714],[113.950701,22.228917],[113.942914,22.221374],[113.93274,22.218381],[113.930718,22.207953],[113.905327,22.206172],[113.895172,22.214729],[113.89433,22.218819],[113.890111,22.219171],[113.871811,22.202873],[113.859625,22.201686],[113.852454,22.195724],[113.844451,22.194141],[113.84584,22.203217],[113.841083,22.208813],[113.842246,22.215323],[113.837984,22.229573]]],[[[114.017046,22.201097],[114.02827,22.20784],[114.021838,22.213058],[114.026092,22.216838],[114.025623,22.220851],[114.035128,22.223539],[114.032437,22.218748],[114.0361,22.216916],[114.030917,22.21528],[114.029711,22.211499],[114.040996,22.205416],[114.036499,22.200547],[114.030067,22.202475],[114.021768,22.195846],[114.017046,22.201097]]],[[[114.294374,22.513268],[114.30138,22.5137],[114.304183,22.510686],[114.309089,22.517517],[114.309617,22.526406],[114.321719,22.516766],[114.310642,22.50801],[114.305902,22.509529],[114.299696,22.504299],[114.295929,22.506577],[114.297682,22.509186],[114.294374,22.513268]]],[[[114.100315,22.217637],[114.11039,22.225615],[114.105815,22.234856],[114.118167,22.241464],[114.122317,22.239305],[114.120841,22.230279],[114.126458,22.22596],[114.126198,22.222415],[114.130649,22.218836],[114.135225,22.221859],[114.137343,22.218793],[114.136926,22.215068],[114.127776,22.207727],[114.128897,22.20453],[114.149886,22.21239],[114.161111,22.209367],[114.158003,22.203064],[114.151266,22.203495],[114.143922,22.196759],[114.150832,22.18173],[114.147378,22.180522],[114.135546,22.189072],[114.138315,22.177499],[114.131318,22.181731],[114.126136,22.177586],[114.115337,22.180435],[114.11335,22.186481],[114.1194,22.192612],[114.11966,22.214205],[114.115945,22.218955],[114.114131,22.214118],[114.102808,22.210813],[114.100315,22.217637]]],[[[114.285329,22.53357],[114.288315,22.539171],[114.293854,22.539557],[114.286189,22.54674],[114.290894,22.548425],[114.287943,22.552617],[114.290417,22.555464],[114.293655,22.551864],[114.317457,22.550163],[114.311866,22.547016],[114.308351,22.548526],[114.303924,22.544288],[114.298785,22.547587],[114.295,22.54704],[114.294418,22.544279],[114.29848,22.539939],[114.305738,22.536245],[114.30434,22.531656],[114.299279,22.532411],[114.299609,22.536603],[114.294279,22.533394],[114.285329,22.53357]]],[[[113.982297,22.194268],[113.987376,22.202203],[113.994876,22.193437],[113.99005,22.188572],[113.987176,22.191435],[113.982297,22.194268]]],[[[114.30013,22.378765],[114.307351,22.381389],[114.317517,22.379017],[114.319913,22.361091],[114.328211,22.356087],[114.323836,22.342265],[114.309106,22.343704],[114.303073,22.350674],[114.305312,22.367502],[114.301753,22.367875],[114.304322,22.372706],[114.30013,22.378765]]],[[[113.905249,22.179831],[113.906699,22.18809],[113.921013,22.179722],[113.91722,22.180319],[113.91656,22.177532],[113.912358,22.18174],[113.905249,22.179831]]],[[[114.279558,22.245693],[114.28231,22.253466],[114.296463,22.258786],[114.29859,22.247713],[114.295794,22.241233],[114.290524,22.241198],[114.288092,22.237343],[114.287281,22.241469],[114.279558,22.245693]]],[[[114.251143,22.163495],[114.255628,22.175296],[114.266348,22.181094],[114.27381,22.173105],[114.274914,22.163037],[114.266244,22.16177],[114.264874,22.163901],[114.260506,22.156702],[114.25522,22.155086],[114.257307,22.160295],[114.252163,22.161352],[114.253772,22.164424],[114.251143,22.163495]]],[[[113.887371,22.347427],[113.885311,22.348897],[113.886663,22.348798],[113.887371,22.347427]]],[[[113.899086,22.160709],[113.909007,22.164014],[113.910597,22.170115],[113.917394,22.167704],[113.913322,22.166104],[113.915223,22.159808],[113.903079,22.156451],[113.899086,22.160709]]],[[[114.026187,22.256634],[114.029156,22.259208],[114.044937,22.257339],[114.044312,22.250319],[114.047516,22.246334],[114.045163,22.241187],[114.040397,22.24296],[114.03794,22.249736],[114.026187,22.256634]]],[[[114.360293,22.318621],[114.365992,22.321367],[114.367965,22.318985],[114.371086,22.310886],[114.367672,22.306476],[114.360293,22.318621]]],[[[114.292203,22.327926],[114.294619,22.332833],[114.302187,22.325755],[114.30213,22.321586],[114.295619,22.32285],[114.292203,22.327926]]],[[[114.031587,22.289178],[114.044477,22.292806],[114.046048,22.29056],[114.040641,22.286072],[114.045762,22.287231],[114.04952,22.282686],[114.038132,22.280536],[114.035363,22.287644],[114.031587,22.289178]]],[[[114.286701,22.36736],[114.29079,22.37437],[114.29651,22.374514],[114.293593,22.372626],[114.295139,22.36862],[114.298116,22.365987],[114.297569,22.353339],[114.294626,22.353654],[114.286701,22.36736]]],[[[114.315355,22.338248],[114.317456,22.340899],[114.326232,22.340746],[114.331597,22.333011],[114.331015,22.328385],[114.326996,22.325385],[114.319999,22.32656],[114.315355,22.338248]]],[[[114.353099,22.480964],[114.358507,22.486436],[114.364826,22.484318],[114.36388,22.479692],[114.367466,22.474674],[114.363168,22.46581],[114.358116,22.465614],[114.353099,22.480964]]],[[[113.897949,22.171884],[113.901569,22.17357],[113.902828,22.172515],[113.901785,22.171339],[113.897949,22.171884]]],[[[114.307265,22.532231],[114.31046,22.535518],[114.316363,22.530393],[114.320199,22.538097],[114.320373,22.523085],[114.308238,22.528235],[114.307265,22.532231]]],[[[114.243193,22.1879],[114.255208,22.190378],[114.257265,22.184086],[114.250946,22.179107],[114.246136,22.181225],[114.244721,22.178174],[114.243193,22.1879]]],[[[114.181683,22.234824],[114.183428,22.236605],[114.18986,22.235429],[114.184478,22.231894],[114.181683,22.234824]]],[[[114.347829,22.257753],[114.352369,22.261291],[114.352595,22.253804],[114.348315,22.253612],[114.347829,22.257753]]],[[[114.359696,22.331141],[114.360929,22.33903],[114.367308,22.339973],[114.368142,22.329589],[114.359696,22.331141]]],[[[113.876769,22.380257],[113.878645,22.382473],[113.885467,22.379797],[113.882941,22.370064],[113.880233,22.370813],[113.88085,22.377887],[113.876769,22.380257]]],[[[114.318674,22.375421],[114.318352,22.376389],[114.319183,22.376359],[114.318674,22.375421]]],[[[114.222582,22.439145],[114.221654,22.441118],[114.222097,22.441366],[114.222582,22.439145]]],[[[114.345451,22.316237],[114.349687,22.325496],[114.357551,22.326938],[114.34875,22.312304],[114.345451,22.316237]]],[[[114.320243,22.372914],[114.321171,22.377322],[114.32927,22.374127],[114.328871,22.365685],[114.324895,22.37379],[114.323073,22.370535],[114.320243,22.372914]]],[[[114.354557,22.500388],[114.357465,22.50451],[114.365425,22.505017],[114.360451,22.496074],[114.354557,22.500388]]],[[[114.345703,22.263496],[114.346328,22.268133],[114.350789,22.270848],[114.348931,22.263788],[114.345703,22.263496]]],[[[114.372378,22.328167],[114.372421,22.332245],[114.378272,22.327827],[114.372378,22.328167]]],[[[114.046517,22.259491],[114.050241,22.264529],[114.056491,22.263544],[114.050936,22.256978],[114.046517,22.259491]]],[[[114.295404,22.546048],[114.295652,22.546813],[114.295835,22.545907],[114.295404,22.546048]]],[[[114.282447,22.185458],[114.288142,22.190021],[114.2892,22.181176],[114.284053,22.181327],[114.282447,22.185458]]],[[[113.923973,22.155158],[113.922281,22.15527],[113.923556,22.156004],[113.923973,22.155158]]],[[[114.051316,22.205375],[114.051144,22.20582],[114.051395,22.20572],[114.051316,22.205375]]],[[[114.219287,22.462323],[114.222739,22.463434],[114.222692,22.460271],[114.22042,22.459907],[114.219287,22.462323]]],[[[114.316822,22.38435],[114.31618,22.388168],[114.318541,22.387896],[114.316822,22.38435]]],[[[113.923435,22.179498],[113.925909,22.179321],[113.926109,22.177971],[113.924945,22.177513],[113.923435,22.179498]]],[[[114.311623,22.541509],[114.311506,22.542323],[114.312038,22.54204],[114.311623,22.541509]]],[[[114.423221,22.54811],[114.424991,22.552808],[114.43059,22.554579],[114.431605,22.54735],[114.441692,22.542398],[114.441727,22.539468],[114.437639,22.536974],[114.428819,22.539108],[114.423221,22.54811]]],[[[114.279088,22.381829],[114.282717,22.380579],[114.282543,22.3786],[114.279705,22.379713],[114.279088,22.381829]]],[[[113.888245,22.346622],[113.891526,22.346425],[113.890537,22.342171],[113.888757,22.343111],[113.888245,22.346622]]],[[[114.320122,22.32559],[114.319974,22.326209],[114.320563,22.325572],[114.320122,22.32559]]],[[[113.890164,22.340851],[113.890394,22.341752],[113.890977,22.341174],[113.890164,22.340851]]],[[[114.284288,22.374587],[114.286414,22.376332],[114.288568,22.376566],[114.286518,22.373739],[114.284288,22.374587]]],[[[114.300351,22.514125],[114.300747,22.514818],[114.301071,22.514122],[114.300351,22.514125]]],[[[114.137595,22.243335],[114.140467,22.243987],[114.141544,22.243669],[114.139608,22.242818],[114.137595,22.243335]]],[[[114.267361,22.553783],[114.270972,22.551421],[114.270825,22.54962],[114.268611,22.551271],[114.267361,22.553783]]],[[[114.275138,22.531842],[114.275312,22.535],[114.277508,22.533147],[114.275138,22.531842]]],[[[114.350876,22.271],[114.350771,22.272161],[114.351519,22.271119],[114.350876,22.271]]],[[[114.258394,22.545143],[114.261102,22.54687],[114.26243,22.546226],[114.260963,22.544748],[114.258394,22.545143]]],[[[114.286042,22.518869],[114.28579,22.521532],[114.289323,22.519866],[114.286042,22.518869]]],[[[113.874729,22.355362],[113.875459,22.356725],[113.875511,22.355409],[113.874729,22.355362]]],[[[114.31828,22.299629],[114.318228,22.300388],[114.318845,22.30029],[114.31828,22.299629]]],[[[114.331867,22.477348],[114.330598,22.480616],[114.331388,22.480892],[114.331867,22.477348]]],[[[114.395008,22.447665],[114.39467,22.449481],[114.396284,22.448372],[114.395008,22.447665]]],[[[113.966752,22.3287],[113.965927,22.334205],[113.969269,22.331559],[113.966752,22.3287]]],[[[114.0567,22.288967],[114.059017,22.289898],[114.060848,22.288409],[114.058383,22.287494],[114.0567,22.288967]]],[[[113.904945,22.173131],[113.904824,22.174889],[113.905778,22.173355],[113.904945,22.173131]]],[[[114.36587,22.321857],[114.365642,22.322807],[114.366738,22.321703],[114.36587,22.321857]]],[[[114.260825,22.551081],[114.262422,22.552118],[114.262786,22.551496],[114.260825,22.551081]]],[[[114.257699,22.446141],[114.25796,22.446927],[114.25796,22.446085],[114.257699,22.446141]]],[[[114.29941,22.375151],[114.302057,22.374859],[114.302447,22.373103],[114.300399,22.372716],[114.29941,22.375151]]],[[[114.369999,22.331595],[114.370971,22.334608],[114.371988,22.332235],[114.369999,22.331595]]],[[[114.110642,22.283667],[114.112716,22.286401],[114.115493,22.284669],[114.114288,22.283352],[114.110642,22.283667]]],[[[114.184991,22.213407],[114.18513,22.217772],[114.188498,22.215171],[114.184991,22.213407]]],[[[114.305234,22.183854],[114.305138,22.188036],[114.306432,22.188886],[114.305234,22.183854]]],[[[114.288585,22.53263],[114.288142,22.533072],[114.288897,22.533014],[114.288585,22.53263]]],[[[114.227308,22.531467],[114.227187,22.532313],[114.227613,22.532372],[114.227308,22.531467]]],[[[114.073774,22.284041],[114.075927,22.286282],[114.080154,22.286498],[114.078965,22.281922],[114.073774,22.284041]]],[[[114.222803,22.206232],[114.222794,22.207668],[114.223966,22.206221],[114.222803,22.206232]]],[[[113.924702,22.176441],[113.924702,22.177209],[113.925092,22.17637],[113.924702,22.176441]]],[[[114.210503,22.527149],[114.211059,22.528385],[114.211623,22.527304],[114.210503,22.527149]]],[[[114.334028,22.334119],[114.334687,22.337304],[114.335668,22.334627],[114.334028,22.334119]]],[[[114.368776,22.32603],[114.369019,22.326887],[114.36947,22.326289],[114.368776,22.32603]]],[[[114.311588,22.301445],[114.311527,22.302745],[114.312126,22.30158],[114.311588,22.301445]]],[[[114.320338,22.30039],[114.320251,22.301727],[114.321415,22.300581],[114.320338,22.30039]]],[[[113.837655,22.214848],[113.835796,22.218038],[113.838834,22.217151],[113.837655,22.214848]]],[[[114.249816,22.159428],[114.251079,22.161773],[114.251955,22.160963],[114.249816,22.159428]]],[[[114.28057,22.242479],[114.280691,22.242882],[114.281118,22.242465],[114.28057,22.242479]]],[[[114.305773,22.536896],[114.307101,22.542275],[114.310035,22.541158],[114.305773,22.536896]]],[[[114.304393,22.500879],[114.304488,22.501756],[114.305104,22.501647],[114.304393,22.500879]]],[[[114.287551,22.45901],[114.287943,22.459309],[114.28796,22.459107],[114.287551,22.45901]]],[[[114.313168,22.38902],[114.31361,22.390137],[114.313949,22.38891],[114.313168,22.38902]]],[[[114.314314,22.383746],[114.3148,22.384809],[114.314939,22.383721],[114.314314,22.383746]]],[[[114.295459,22.370006],[114.294974,22.372149],[114.296736,22.370957],[114.295459,22.370006]]],[[[114.365737,22.347654],[114.36585,22.348236],[114.366189,22.347712],[114.365737,22.347654]]],[[[114.310095,22.304422],[114.310303,22.30498],[114.310303,22.304323],[114.310095,22.304422]]],[[[114.255277,22.226206],[114.258342,22.226839],[114.259565,22.225572],[114.257299,22.225043],[114.255277,22.226206]]],[[[114.134582,22.223091],[114.134712,22.226414],[114.136293,22.225609],[114.134582,22.223091]]],[[[113.916378,22.162129],[113.916708,22.163244],[113.917028,22.162241],[113.916378,22.162129]]],[[[114.290755,22.463093],[114.290989,22.464144],[114.29112,22.463175],[114.290755,22.463093]]],[[[114.315885,22.388667],[114.316041,22.388988],[114.316146,22.388774],[114.315885,22.388667]]],[[[114.288775,22.378107],[114.289314,22.379796],[114.289549,22.378263],[114.288775,22.378107]]],[[[114.391389,22.362591],[114.391822,22.365011],[114.39243,22.362437],[114.391389,22.362591]]],[[[114.287022,22.362345],[114.286623,22.364296],[114.287491,22.364208],[114.287022,22.362345]]],[[[114.367986,22.325203],[114.367699,22.326269],[114.369235,22.32549],[114.367986,22.325203]]],[[[114.327005,22.322474],[114.327291,22.323239],[114.327569,22.322769],[114.327005,22.322474]]],[[[113.946256,22.21444],[113.945944,22.215371],[113.946612,22.215269],[113.946256,22.21444]]],[[[114.304018,22.181581],[114.302499,22.183033],[114.304557,22.183313],[114.304018,22.181581]]],[[[113.983316,22.18764],[113.987067,22.190764],[113.989677,22.187939],[113.988614,22.18716],[113.983316,22.18764]]],[[[114.255747,22.55059],[114.255702,22.551581],[114.256138,22.551584],[114.255747,22.55059]]],[[[114.330746,22.539572],[114.331085,22.542582],[114.331432,22.539648],[114.330746,22.539572]]],[[[114.265564,22.54161],[114.265764,22.542611],[114.266181,22.541775],[114.265564,22.54161]]],[[[114.280026,22.532157],[114.280313,22.533168],[114.281102,22.532489],[114.280026,22.532157]]],[[[114.294513,22.514097],[114.294731,22.514657],[114.294783,22.514045],[114.294513,22.514097]]],[[[114.372092,22.482439],[114.370382,22.484387],[114.372899,22.482714],[114.372092,22.482439]]],[[[114.331996,22.474479],[114.331432,22.475818],[114.332395,22.475058],[114.331996,22.474479]]],[[[114.324531,22.366343],[114.324609,22.367628],[114.32545,22.366892],[114.324531,22.366343]]],[[[114.374652,22.338485],[114.374887,22.339353],[114.375721,22.338678],[114.374652,22.338485]]],[[[114.317005,22.303463],[114.316674,22.303949],[114.316883,22.304032],[114.317005,22.303463]]],[[[114.319001,22.300419],[114.318957,22.300759],[114.319218,22.300572],[114.319001,22.300419]]],[[[114.31342,22.274164],[114.314817,22.277981],[114.316093,22.274669],[114.31342,22.274164]]],[[[114.345737,22.253717],[114.34618,22.255501],[114.347638,22.253774],[114.345737,22.253717]]],[[[114.290303,22.187981],[114.290138,22.190269],[114.29058,22.19024],[114.290303,22.187981]]],[[[113.925492,22.175981],[113.925431,22.176399],[113.925735,22.176202],[113.925492,22.175981]]],[[[114.327214,22.362936],[114.326935,22.363432],[114.327333,22.363341],[114.327214,22.362936]]],[[[114.264826,22.552179],[114.264878,22.552751],[114.265182,22.552556],[114.264826,22.552179]]],[[[114.272161,22.535449],[114.272292,22.536252],[114.272535,22.535527],[114.272161,22.535449]]],[[[114.27296,22.532389],[114.272474,22.533339],[114.273082,22.533327],[114.27296,22.532389]]],[[[114.288047,22.525985],[114.287691,22.526627],[114.288307,22.526391],[114.288047,22.525985]]],[[[114.290911,22.509623],[114.290729,22.510284],[114.291137,22.510292],[114.290911,22.509623]]],[[[114.333992,22.479169],[114.333828,22.480653],[114.334505,22.479579],[114.333992,22.479169]]],[[[114.42763,22.465397],[114.427708,22.467072],[114.42869,22.464655],[114.42763,22.465397]]],[[[114.402031,22.435202],[114.401597,22.436107],[114.402291,22.436174],[114.402031,22.435202]]],[[[114.385928,22.401154],[114.386554,22.402344],[114.387057,22.401278],[114.385928,22.401154]]],[[[114.284566,22.389383],[114.28421,22.390397],[114.284948,22.389817],[114.284566,22.389383]]],[[[114.370129,22.344216],[114.368957,22.345564],[114.370216,22.345582],[114.370129,22.344216]]],[[[113.979946,22.334447],[113.980832,22.338614],[113.983358,22.340763],[113.982915,22.336387],[113.979946,22.334447]]],[[[113.978575,22.326483],[113.979035,22.32752],[113.979286,22.326325],[113.978575,22.326483]]],[[[114.367161,22.325296],[114.366745,22.326174],[114.367369,22.326111],[114.367161,22.325296]]],[[[114.318471,22.31106],[114.31868,22.312705],[114.319227,22.310963],[114.318471,22.31106]]],[[[114.309227,22.307402],[114.309227,22.307853],[114.3094,22.307471],[114.309227,22.307402]]],[[[114.310061,22.306821],[114.309843,22.30731],[114.310103,22.307157],[114.310061,22.306821]]],[[[114.308784,22.304545],[114.308654,22.30482],[114.308862,22.304713],[114.308784,22.304545]]],[[[114.310998,22.303113],[114.311432,22.304279],[114.311397,22.303066],[114.310998,22.303113]]],[[[114.317187,22.303311],[114.317318,22.303951],[114.317361,22.303191],[114.317187,22.303311]]],[[[114.117022,22.284615],[114.116943,22.28649],[114.11769,22.285064],[114.117022,22.284615]]],[[[114.366805,22.266254],[114.366857,22.26731],[114.367474,22.266739],[114.366805,22.266254]]],[[[114.369818,22.264652],[114.370052,22.266172],[114.370702,22.264546],[114.369818,22.264652]]],[[[114.267344,22.53809],[114.267622,22.538589],[114.267778,22.538103],[114.267344,22.53809]]],[[[114.401909,22.433277],[114.401718,22.433978],[114.402265,22.433726],[114.401909,22.433277]]],[[[114.386502,22.402459],[114.385312,22.404132],[114.386771,22.403568],[114.386502,22.402459]]],[[[114.282066,22.38571],[114.282239,22.386539],[114.282707,22.386072],[114.282066,22.38571]]],[[[114.299184,22.379318],[114.29947,22.380254],[114.299582,22.379363],[114.299184,22.379318]]],[[[114.289982,22.375158],[114.28993,22.376258],[114.290851,22.375386],[114.289982,22.375158]]],[[[114.301579,22.370829],[114.301233,22.37206],[114.30197,22.371425],[114.301579,22.370829]]],[[[113.887681,22.351247],[113.88637,22.353588],[113.888627,22.353612],[113.887681,22.351247]]],[[[114.309826,22.307508],[114.30967,22.307845],[114.309843,22.307745],[114.309826,22.307508]]],[[[114.345398,22.262428],[114.345104,22.263246],[114.345694,22.262921],[114.345398,22.262428]]],[[[114.237143,22.174671],[114.236901,22.175876],[114.237812,22.175084],[114.237143,22.174671]]],[[[113.907393,22.173168],[113.907228,22.173743],[113.907662,22.173344],[113.907393,22.173168]]],[[[114.387716,22.405461],[114.387612,22.406026],[114.388003,22.405763],[114.387716,22.405461]]],[[[114.351675,22.34185],[114.351987,22.342905],[114.352335,22.342104],[114.351675,22.34185]]],[[[114.310086,22.309136],[114.310025,22.309539],[114.310225,22.309431],[114.310086,22.309136]]],[[[114.312421,22.300833],[114.312187,22.301164],[114.312526,22.301104],[114.312421,22.300833]]],[[[114.28434,22.525716],[114.284322,22.526285],[114.284687,22.526022],[114.28434,22.525716]]],[[[114.329791,22.323639],[114.329739,22.323819],[114.329895,22.323756],[114.329791,22.323639]]],[[[114.367647,22.264328],[114.367864,22.264715],[114.367959,22.264285],[114.367647,22.264328]]]]}},{"type":"Feature","properties":{"id":"cn:810000","name":"香港特别行政区","level":2},"geometry":{"type":"MultiPolygon","coordinates":[[[[113.837984,22.229573],[113.841482,22.235571],[113.847576,22.237708],[113.848132,22.243868],[113.858635,22.248194],[113.859417,22.252861],[113.852168,22.251955],[113.850996,22.257346],[113.858809,22.261702],[113.863948,22.260005],[113.869277,22.26963],[113.884061,22.273824],[113.892203,22.284979],[113.890215,22.295268],[113.894226,22.304252],[113.888768,22.310078],[113.899201,22.316949],[113.896883,22.321168],[113.878826,22.315366],[113.875926,22.322313],[113.881394,22.325958],[113.918564,22.336469],[113.925346,22.330258],[113.939646,22.325273],[113.964623,22.324188],[113.9636,22.313658],[113.958434,22.308716],[113.944998,22.30746],[113.950415,22.301428],[114.017681,22.340665],[114.021127,22.350181],[114.015893,22.356437],[113.975007,22.36902],[113.955546,22.365632],[113.951526,22.362378],[113.954375,22.356241],[113.952185,22.355574],[113.936535,22.358286],[113.925919,22.364048],[113.913427,22.374496],[113.91598,22.383953],[113.910789,22.400516],[113.900363,22.405774],[113.913471,22.42128],[113.93736,22.42922],[113.952856,22.450976],[113.972743,22.459774],[113.981016,22.474071],[113.99368,22.485112],[113.994826,22.493121],[114.009305,22.491393],[114.01618,22.483378],[114.019948,22.483338],[114.021162,22.49054],[114.027847,22.495512],[114.024115,22.505859],[114.054871,22.503452],[114.064004,22.516489],[114.071879,22.518184],[114.077136,22.515165],[114.082512,22.518589],[114.085216,22.523679],[114.078443,22.529589],[114.090168,22.53677],[114.104466,22.534946],[114.112166,22.529622],[114.130425,22.541773],[114.148098,22.541842],[114.151692,22.54671],[114.149575,22.548658],[114.151979,22.554553],[114.156723,22.555019],[114.161432,22.561908],[114.163536,22.559177],[114.1772,22.559726],[114.180967,22.554106],[114.200929,22.557573],[114.218143,22.555829],[114.225916,22.548795],[114.227716,22.542899],[114.218967,22.541345],[114.210807,22.532552],[114.209445,22.528207],[114.210287,22.526679],[114.218255,22.528437],[114.22118,22.531703],[114.227301,22.530829],[114.242188,22.550206],[114.260434,22.549648],[114.257735,22.544887],[114.268585,22.535],[114.263828,22.526984],[114.272673,22.5265],[114.27421,22.530575],[114.28164,22.529408],[114.279766,22.523227],[114.286797,22.525215],[114.278507,22.511448],[114.292777,22.508956],[114.294384,22.506126],[114.304097,22.500149],[114.331987,22.512339],[114.336988,22.510896],[114.337387,22.507611],[114.306979,22.481479],[114.277187,22.469056],[114.265252,22.461749],[114.257794,22.452626],[114.24835,22.448363],[114.242899,22.44924],[114.241189,22.456907],[114.229253,22.469433],[114.213706,22.468407],[114.209705,22.460378],[114.22046,22.456387],[114.217326,22.452877],[114.223672,22.451345],[114.231832,22.459372],[114.235017,22.457499],[114.234028,22.454546],[114.225807,22.448446],[114.21513,22.446712],[114.207196,22.448323],[114.207378,22.453945],[114.202213,22.453945],[114.198281,22.444894],[114.200407,22.439998],[114.219479,22.429492],[114.233333,22.431085],[114.236892,22.437781],[114.240538,22.438706],[114.272812,22.438116],[114.279167,22.449431],[114.29165,22.459357],[114.29875,22.45953],[114.305191,22.471354],[114.320876,22.481614],[114.324027,22.480123],[114.325199,22.473546],[114.331224,22.47409],[114.3321,22.465429],[114.337144,22.468902],[114.33947,22.479629],[114.342995,22.479709],[114.34559,22.474967],[114.348906,22.462664],[114.341206,22.457721],[114.342351,22.440449],[114.352378,22.439218],[114.351362,22.45072],[114.359028,22.453954],[114.359852,22.462542],[114.370521,22.456464],[114.368403,22.445271],[114.370807,22.439433],[114.382101,22.438003],[114.392075,22.441592],[114.40112,22.436269],[114.400477,22.423422],[114.40638,22.411653],[114.398072,22.410531],[114.390989,22.418186],[114.385295,22.418265],[114.375417,22.401193],[114.391554,22.388014],[114.391623,22.366512],[114.388507,22.364628],[114.382117,22.368276],[114.381076,22.363153],[114.376371,22.360108],[114.379626,22.357748],[114.374514,22.353162],[114.367508,22.352523],[114.365624,22.348804],[114.360581,22.350386],[114.362326,22.341954],[114.357821,22.335162],[114.354488,22.336426],[114.350729,22.350747],[114.342786,22.345918],[114.336501,22.351341],[114.336371,22.356564],[114.32993,22.364164],[114.33315,22.375907],[114.317751,22.381918],[114.319115,22.387862],[114.316067,22.391857],[114.310373,22.39117],[114.310538,22.384477],[114.305164,22.383819],[114.297429,22.38408],[114.285216,22.392606],[114.278377,22.38955],[114.274696,22.368978],[114.279583,22.355258],[114.276292,22.349301],[114.269695,22.348738],[114.273593,22.331532],[114.27849,22.325948],[114.288871,22.323237],[114.294983,22.311762],[114.303975,22.311527],[114.312916,22.297365],[114.311588,22.292471],[114.298549,22.2834],[114.30434,22.280221],[114.304045,22.273654],[114.308254,22.268077],[114.299609,22.259674],[114.284175,22.270544],[114.277812,22.262361],[114.271483,22.262521],[114.263064,22.273608],[114.262126,22.280834],[114.265894,22.289238],[114.260208,22.297239],[114.256675,22.297107],[114.245563,22.285817],[114.244713,22.275531],[114.258281,22.261493],[114.256354,22.249963],[114.250719,22.244405],[114.254999,22.231861],[114.260607,22.230758],[114.253003,22.226779],[114.256813,22.212944],[114.261813,22.208613],[114.260816,22.203603],[114.242126,22.20674],[114.23348,22.216681],[114.220928,22.210023],[114.221084,22.205004],[114.224574,22.196424],[114.212786,22.19374],[114.207768,22.21246],[114.196995,22.209995],[114.198106,22.218942],[114.190807,22.223715],[114.195754,22.225837],[114.195164,22.235388],[114.181049,22.242302],[114.174374,22.228528],[114.160589,22.228977],[114.15736,22.233293],[114.148514,22.237827],[114.141309,22.245034],[114.133479,22.249194],[114.115364,22.274913],[114.118758,22.283988],[114.139088,22.29577],[114.141223,22.300739],[114.138818,22.30603],[114.124123,22.31327],[114.115902,22.323591],[114.089765,22.323717],[114.076179,22.332331],[114.064955,22.329764],[114.051856,22.307962],[114.030007,22.303675],[114.02821,22.292253],[114.02196,22.2891],[114.024165,22.265321],[114.014538,22.264979],[114.000614,22.270995],[113.99978,22.267166],[114.012931,22.252871],[114.001977,22.247205],[113.999694,22.242257],[114.021438,22.230916],[114.016612,22.223509],[113.991569,22.209143],[113.980917,22.214071],[113.974104,22.223726],[113.976169,22.233053],[113.970761,22.233714],[113.950701,22.228917],[113.942914,22.221374],[113.93274,22.218381],[113.930718,22.207953],[113.905327,22.206172],[113.895172,22.214729],[113.89433,22.218819],[113.890111,22.219171],[113.871811,22.202873],[113.859625,22.201686],[113.852454,22.195724],[113.844451,22.194141],[113.84584,22.203217],[113.841083,22.208813],[113.842246,22.215323],[113.837984,22.229573]]],[[[114.017046,22.201097],[114.02827,22.20784],[114.021838,22.213058],[114.026092,22.216838],[114.025623,22.220851],[114.035128,22.223539],[114.032437,22.218748],[114.0361,22.216916],[114.030917,22.21528],[114.029711,22.211499],[114.040996,22.205416],[114.036499,22.200547],[114.030067,22.202475],[114.021768,22.195846],[114.017046,22.201097]]],[[[114.294374,22.513268],[114.30138,22.5137],[114.304183,22.510686],[114.309089,22.517517],[114.309617,22.526406],[114.321719,22.516766],[114.310642,22.50801],[114.305902,22.509529],[114.299696,22.504299],[114.295929,22.506577],[114.297682,22.509186],[114.294374,22.513268]]],[[[114.100315,22.217637],[114.11039,22.225615],[114.105815,22.234856],[114.118167,22.241464],[114.122317,22.239305],[114.120841,22.230279],[114.126458,22.22596],[114.126198,22.222415],[114.130649,22.218836],[114.135225,22.221859],[114.137343,22.218793],[114.136926,22.215068],[114.127776,22.207727],[114.128897,22.20453],[114.149886,22.21239],[114.161111,22.209367],[114.158003,22.203064],[114.151266,22.203495],[114.143922,22.196759],[114.150832,22.18173],[114.147378,22.180522],[114.135546,22.189072],[114.138315,22.177499],[114.131318,22.181731],[114.126136,22.177586],[114.115337,22.180435],[114.11335,22.186481],[114.1194,22.192612],[114.11966,22.214205],[114.115945,22.218955],[114.114131,22.214118],[114.102808,22.210813],[114.100315,22.217637]]],[[[114.285329,22.53357],[114.288315,22.539171],[114.293854,22.539557],[114.286189,22.54674],[114.290894,22.548425],[114.287943,22.552617],[114.290417,22.555464],[114.293655,22.551864],[114.317457,22.550163],[114.311866,22.547016],[114.308351,22.548526],[114.303924,22.544288],[114.298785,22.547587],[114.295,22.54704],[114.294418,22.544279],[114.29848,22.539939],[114.305738,22.536245],[114.30434,22.531656],[114.299279,22.532411],[114.299609,22.536603],[114.294279,22.533394],[114.285329,22.53357]]],[[[113.982297,22.194268],[113.987376,22.202203],[113.994876,22.193437],[113.99005,22.188572],[113.987176,22.191435],[113.982297,22.194268]]],[[[114.30013,22.378765],[114.307351,22.381389],[114.317517,22.379017],[114.319913,22.361091],[114.328211,22.356087],[114.323836,22.342265],[114.309106,22.343704],[114.303073,22.350674],[114.305312,22.367502],[114.301753,22.367875],[114.304322,22.372706],[114.30013,22.378765]]],[[[113.905249,22.179831],[113.906699,22.18809],[113.921013,22.179722],[113.91722,22.180319],[113.91656,22.177532],[113.912358,22.18174],[113.905249,22.179831]]],[[[114.279558,22.245693],[114.28231,22.253466],[114.296463,22.258786],[114.29859,22.247713],[114.295794,22.241233],[114.290524,22.241198],[114.288092,22.237343],[114.287281,22.241469],[114.279558,22.245693]]],[[[114.251143,22.163495],[114.255628,22.175296],[114.266348,22.181094],[114.27381,22.173105],[114.274914,22.163037],[114.266244,22.16177],[114.264874,22.163901],[114.260506,22.156702],[114.25522,22.155086],[114.257307,22.160295],[114.252163,22.161352],[114.253772,22.164424],[114.251143,22.163495]]],[[[113.887371,22.347427],[113.885311,22.348897],[113.886663,22.348798],[113.887371,22.347427]]],[[[113.899086,22.160709],[113.909007,22.164014],[113.910597,22.170115],[113.917394,22.167704],[113.913322,22.166104],[113.915223,22.159808],[113.903079,22.156451],[113.899086,22.160709]]],[[[114.026187,22.256634],[114.029156,22.259208],[114.044937,22.257339],[114.044312,22.250319],[114.047516,22.246334],[114.045163,22.241187],[114.040397,22.24296],[114.03794,22.249736],[114.026187,22.256634]]],[[[114.360293,22.318621],[114.365992,22.321367],[114.367965,22.318985],[114.371086,22.310886],[114.367672,22.306476],[114.360293,22.318621]]],[[[114.292203,22.327926],[114.294619,22.332833],[114.302187,22.325755],[114.30213,22.321586],[114.295619,22.32285],[114.292203,22.327926]]],[[[114.031587,22.289178],[114.044477,22.292806],[114.046048,22.29056],[114.040641,22.286072],[114.045762,22.287231],[114.04952,22.282686],[114.038132,22.280536],[114.035363,22.287644],[114.031587,22.289178]]],[[[114.286701,22.36736],[114.29079,22.37437],[114.29651,22.374514],[114.293593,22.372626],[114.295139,22.36862],[114.298116,22.365987],[114.297569,22.353339],[114.294626,22.353654],[114.286701,22.36736]]],[[[114.315355,22.338248],[114.317456,22.340899],[114.326232,22.340746],[114.331597,22.333011],[114.331015,22.328385],[114.326996,22.325385],[114.319999,22.32656],[114.315355,22.338248]]],[[[114.353099,22.480964],[114.358507,22.486436],[114.364826,22.484318],[114.36388,22.479692],[114.367466,22.474674],[114.363168,22.46581],[114.358116,22.465614],[114.353099,22.480964]]],[[[113.897949,22.171884],[113.901569,22.17357],[113.902828,22.172515],[113.901785,22.171339],[113.897949,22.171884]]],[[[114.307265,22.532231],[114.31046,22.535518],[114.316363,22.530393],[114.320199,22.538097],[114.320373,22.523085],[114.308238,22.528235],[114.307265,22.532231]]],[[[114.243193,22.1879],[114.255208,22.190378],[114.257265,22.184086],[114.250946,22.179107],[114.246136,22.181225],[114.244721,22.178174],[114.243193,22.1879]]],[[[114.181683,22.234824],[114.183428,22.236605],[114.18986,22.235429],[114.184478,22.231894],[114.181683,22.234824]]],[[[114.347829,22.257753],[114.352369,22.261291],[114.352595,22.253804],[114.348315,22.253612],[114.347829,22.257753]]],[[[114.359696,22.331141],[114.360929,22.33903],[114.367308,22.339973],[114.368142,22.329589],[114.359696,22.331141]]],[[[113.876769,22.380257],[113.878645,22.382473],[113.885467,22.379797],[113.882941,22.370064],[113.880233,22.370813],[113.88085,22.377887],[113.876769,22.380257]]],[[[114.318674,22.375421],[114.318352,22.376389],[114.319183,22.376359],[114.318674,22.375421]]],[[[114.222582,22.439145],[114.221654,22.441118],[114.222097,22.441366],[114.222582,22.439145]]],[[[114.345451,22.316237],[114.349687,22.325496],[114.357551,22.326938],[114.34875,22.312304],[114.345451,22.316237]]],[[[114.320243,22.372914],[114.321171,22.377322],[114.32927,22.374127],[114.328871,22.365685],[114.324895,22.37379],[114.323073,22.370535],[114.320243,22.372914]]],[[[114.354557,22.500388],[114.357465,22.50451],[114.365425,22.505017],[114.360451,22.496074],[114.354557,22.500388]]],[[[114.345703,22.263496],[114.346328,22.268133],[114.350789,22.270848],[114.348931,22.263788],[114.345703,22.263496]]],[[[114.372378,22.328167],[114.372421,22.332245],[114.378272,22.327827],[114.372378,22.328167]]],[[[114.046517,22.259491],[114.050241,22.264529],[114.056491,22.263544],[114.050936,22.256978],[114.046517,22.259491]]],[[[114.295404,22.546048],[114.295652,22.546813],[114.295835,22.545907],[114.295404,22.546048]]],[[[114.282447,22.185458],[114.288142,22.190021],[114.2892,22.181176],[114.284053,22.181327],[114.282447,22.185458]]],[[[113.923973,22.155158],[113.922281,22.15527],[113.923556,22.156004],[113.923973,22.155158]]],[[[114.051316,22.205375],[114.051144,22.20582],[114.051395,22.20572],[114.051316,22.205375]]],[[[114.219287,22.462323],[114.222739,22.463434],[114.222692,22.460271],[114.22042,22.459907],[114.219287,22.462323]]],[[[114.316822,22.38435],[114.31618,22.388168],[114.318541,22.387896],[114.316822,22.38435]]],[[[113.923435,22.179498],[113.925909,22.179321],[113.926109,22.177971],[113.924945,22.177513],[113.923435,22.179498]]],[[[114.311623,22.541509],[114.311506,22.542323],[114.312038,22.54204],[114.311623,22.541509]]],[[[114.423221,22.54811],[114.424991,22.552808],[114.43059,22.554579],[114.431605,22.54735],[114.441692,22.542398],[114.441727,22.539468],[114.437639,22.536974],[114.428819,22.539108],[114.423221,22.54811]]],[[[114.279088,22.381829],[114.282717,22.380579],[114.282543,22.3786],[114.279705,22.379713],[114.279088,22.381829]]],[[[113.888245,22.346622],[113.891526,22.346425],[113.890537,22.342171],[113.888757,22.343111],[113.888245,22.346622]]],[[[114.320122,22.32559],[114.319974,22.326209],[114.320563,22.325572],[114.320122,22.32559]]],[[[113.890164,22.340851],[113.890394,22.341752],[113.890977,22.341174],[113.890164,22.340851]]],[[[114.284288,22.374587],[114.286414,22.376332],[114.288568,22.376566],[114.286518,22.373739],[114.284288,22.374587]]],[[[114.300351,22.514125],[114.300747,22.514818],[114.301071,22.514122],[114.300351,22.514125]]],[[[114.137595,22.243335],[114.140467,22.243987],[114.141544,22.243669],[114.139608,22.242818],[114.137595,22.243335]]],[[[114.267361,22.553783],[114.270972,22.551421],[114.270825,22.54962],[114.268611,22.551271],[114.267361,22.553783]]],[[[114.275138,22.531842],[114.275312,22.535],[114.277508,22.533147],[114.275138,22.531842]]],[[[114.350876,22.271],[114.350771,22.272161],[114.351519,22.271119],[114.350876,22.271]]],[[[114.258394,22.545143],[114.261102,22.54687],[114.26243,22.546226],[114.260963,22.544748],[114.258394,22.545143]]],[[[114.286042,22.518869],[114.28579,22.521532],[114.289323,22.519866],[114.286042,22.518869]]],[[[113.874729,22.355362],[113.875459,22.356725],[113.875511,22.355409],[113.874729,22.355362]]],[[[114.31828,22.299629],[114.318228,22.300388],[114.318845,22.30029],[114.31828,22.299629]]],[[[114.331867,22.477348],[114.330598,22.480616],[114.331388,22.480892],[114.331867,22.477348]]],[[[114.395008,22.447665],[114.39467,22.449481],[114.396284,22.448372],[114.395008,22.447665]]],[[[113.966752,22.3287],[113.965927,22.334205],[113.969269,22.331559],[113.966752,22.3287]]],[[[114.0567,22.288967],[114.059017,22.289898],[114.060848,22.288409],[114.058383,22.287494],[114.0567,22.288967]]],[[[113.904945,22.173131],[113.904824,22.174889],[113.905778,22.173355],[113.904945,22.173131]]],[[[114.36587,22.321857],[114.365642,22.322807],[114.366738,22.321703],[114.36587,22.321857]]],[[[114.260825,22.551081],[114.262422,22.552118],[114.262786,22.551496],[114.260825,22.551081]]],[[[114.257699,22.446141],[114.25796,22.446927],[114.25796,22.446085],[114.257699,22.446141]]],[[[114.29941,22.375151],[114.302057,22.374859],[114.302447,22.373103],[114.300399,22.372716],[114.29941,22.375151]]],[[[114.369999,22.331595],[114.370971,22.334608],[114.371988,22.332235],[114.369999,22.331595]]],[[[114.110642,22.283667],[114.112716,22.286401],[114.115493,22.284669],[114.114288,22.283352],[114.110642,22.283667]]],[[[114.184991,22.213407],[114.18513,22.217772],[114.188498,22.215171],[114.184991,22.213407]]],[[[114.305234,22.183854],[114.305138,22.188036],[114.306432,22.188886],[114.305234,22.183854]]],[[[114.288585,22.53263],[114.288142,22.533072],[114.288897,22.533014],[114.288585,22.53263]]],[[[114.227308,22.531467],[114.227187,22.532313],[114.227613,22.532372],[114.227308,22.531467]]],[[[114.073774,22.284041],[114.075927,22.286282],[114.080154,22.286498],[114.078965,22.281922],[114.073774,22.284041]]],[[[114.222803,22.206232],[114.222794,22.207668],[114.223966,22.206221],[114.222803,22.206232]]],[[[113.924702,22.176441],[113.924702,22.177209],[113.925092,22.17637],[113.924702,22.176441]]],[[[114.210503,22.527149],[114.211059,22.528385],[114.211623,22.527304],[114.210503,22.527149]]],[[[114.334028,22.334119],[114.334687,22.337304],[114.335668,22.334627],[114.334028,22.334119]]],[[[114.368776,22.32603],[114.369019,22.326887],[114.36947,22.326289],[114.368776,22.32603]]],[[[114.311588,22.301445],[114.311527,22.302745],[114.312126,22.30158],[114.311588,22.301445]]],[[[114.320338,22.30039],[114.320251,22.301727],[114.321415,22.300581],[114.320338,22.30039]]],[[[113.837655,22.214848],[113.835796,22.218038],[113.838834,22.217151],[113.837655,22.214848]]],[[[114.249816,22.159428],[114.251079,22.161773],[114.251955,22.160963],[114.249816,22.159428]]],[[[114.28057,22.242479],[114.280691,22.242882],[114.281118,22.242465],[114.28057,22.242479]]],[[[114.305773,22.536896],[114.307101,22.542275],[114.310035,22.541158],[114.305773,22.536896]]],[[[114.304393,22.500879],[114.304488,22.501756],[114.305104,22.501647],[114.304393,22.500879]]],[[[114.287551,22.45901],[114.287943,22.459309],[114.28796,22.459107],[114.287551,22.45901]]],[[[114.313168,22.38902],[114.31361,22.390137],[114.313949,22.38891],[114.313168,22.38902]]],[[[114.314314,22.383746],[114.3148,22.384809],[114.314939,22.383721],[114.314314,22.383746]]],[[[114.295459,22.370006],[114.294974,22.372149],[114.296736,22.370957],[114.295459,22.370006]]],[[[114.365737,22.347654],[114.36585,22.348236],[114.366189,22.347712],[114.365737,22.347654]]],[[[114.310095,22.304422],[114.310303,22.30498],[114.310303,22.304323],[114.310095,22.304422]]],[[[114.255277,22.226206],[114.258342,22.226839],[114.259565,22.225572],[114.257299,22.225043],[114.255277,22.226206]]],[[[114.134582,22.223091],[114.134712,22.226414],[114.136293,22.225609],[114.134582,22.223091]]],[[[113.916378,22.162129],[113.916708,22.163244],[113.917028,22.162241],[113.916378,22.162129]]],[[[114.290755,22.463093],[114.290989,22.464144],[114.29112,22.463175],[114.290755,22.463093]]],[[[114.315885,22.388667],[114.316041,22.388988],[114.316146,22.388774],[114.315885,22.388667]]],[[[114.288775,22.378107],[114.289314,22.379796],[114.289549,22.378263],[114.288775,22.378107]]],[[[114.391389,22.362591],[114.391822,22.365011],[114.39243,22.362437],[114.391389,22.362591]]],[[[114.287022,22.362345],[114.286623,22.364296],[114.287491,22.364208],[114.287022,22.362345]]],[[[114.367986,22.325203],[114.367699,22.326269],[114.369235,22.32549],[114.367986,22.325203]]],[[[114.327005,22.322474],[114.327291,22.323239],[114.327569,22.322769],[114.327005,22.322474]]],[[[113.946256,22.21444],[113.945944,22.215371],[113.946612,22.215269],[113.946256,22.21444]]],[[[114.304018,22.181581],[114.302499,22.183033],[114.304557,22.183313],[114.304018,22.181581]]],[[[113.983316,22.18764],[113.987067,22.190764],[113.989677,22.187939],[113.988614,22.18716],[113.983316,22.18764]]],[[[114.255747,22.55059],[114.255702,22.551581],[114.256138,22.551584],[114.255747,22.55059]]],[[[114.330746,22.539572],[114.331085,22.542582],[114.331432,22.539648],[114.330746,22.539572]]],[[[114.265564,22.54161],[114.265764,22.542611],[114.266181,22.541775],[114.265564,22.54161]]],[[[114.280026,22.532157],[114.280313,22.533168],[114.281102,22.532489],[114.280026,22.532157]]],[[[114.294513,22.514097],[114.294731,22.514657],[114.294783,22.514045],[114.294513,22.514097]]],[[[114.372092,22.482439],[114.370382,22.484387],[114.372899,22.482714],[114.372092,22.482439]]],[[[114.331996,22.474479],[114.331432,22.475818],[114.332395,22.475058],[114.331996,22.474479]]],[[[114.324531,22.366343],[114.324609,22.367628],[114.32545,22.366892],[114.324531,22.366343]]],[[[114.374652,22.338485],[114.374887,22.339353],[114.375721,22.338678],[114.374652,22.338485]]],[[[114.317005,22.303463],[114.316674,22.303949],[114.316883,22.304032],[114.317005,22.303463]]],[[[114.319001,22.300419],[114.318957,22.300759],[114.319218,22.300572],[114.319001,22.300419]]],[[[114.31342,22.274164],[114.314817,22.277981],[114.316093,22.274669],[114.31342,22.274164]]],[[[114.345737,22.253717],[114.34618,22.255501],[114.347638,22.253774],[114.345737,22.253717]]],[[[114.290303,22.187981],[114.290138,22.190269],[114.29058,22.19024],[114.290303,22.187981]]],[[[113.925492,22.175981],[113.925431,22.176399],[113.925735,22.176202],[113.925492,22.175981]]],[[[114.327214,22.362936],[114.326935,22.363432],[114.327333,22.363341],[114.327214,22.362936]]],[[[114.264826,22.552179],[114.264878,22.552751],[114.265182,22.552556],[114.264826,22.552179]]],[[[114.272161,22.535449],[114.272292,22.536252],[114.272535,22.535527],[114.272161,22.535449]]],[[[114.27296,22.532389],[114.272474,22.533339],[114.273082,22.533327],[114.27296,22.532389]]],[[[114.288047,22.525985],[114.287691,22.526627],[114.288307,22.526391],[114.288047,22.525985]]],[[[114.290911,22.509623],[114.290729,22.510284],[114.291137,22.510292],[114.290911,22.509623]]],[[[114.333992,22.479169],[114.333828,22.480653],[114.334505,22.479579],[114.333992,22.479169]]],[[[114.42763,22.465397],[114.427708,22.467072],[114.42869,22.464655],[114.42763,22.465397]]],[[[114.402031,22.435202],[114.401597,22.436107],[114.402291,22.436174],[114.402031,22.435202]]],[[[114.385928,22.401154],[114.386554,22.402344],[114.387057,22.401278],[114.385928,22.401154]]],[[[114.284566,22.389383],[114.28421,22.390397],[114.284948,22.389817],[114.284566,22.389383]]],[[[114.370129,22.344216],[114.368957,22.345564],[114.370216,22.345582],[114.370129,22.344216]]],[[[113.979946,22.334447],[113.980832,22.338614],[113.983358,22.340763],[113.982915,22.336387],[113.979946,22.334447]]],[[[113.978575,22.326483],[113.979035,22.32752],[113.979286,22.326325],[113.978575,22.326483]]],[[[114.367161,22.325296],[114.366745,22.326174],[114.367369,22.326111],[114.367161,22.325296]]],[[[114.318471,22.31106],[114.31868,22.312705],[114.319227,22.310963],[114.318471,22.31106]]],[[[114.309227,22.307402],[114.309227,22.307853],[114.3094,22.307471],[114.309227,22.307402]]],[[[114.310061,22.306821],[114.309843,22.30731],[114.310103,22.307157],[114.310061,22.306821]]],[[[114.308784,22.304545],[114.308654,22.30482],[114.308862,22.304713],[114.308784,22.304545]]],[[[114.310998,22.303113],[114.311432,22.304279],[114.311397,22.303066],[114.310998,22.303113]]],[[[114.317187,22.303311],[114.317318,22.303951],[114.317361,22.303191],[114.317187,22.303311]]],[[[114.117022,22.284615],[114.116943,22.28649],[114.11769,22.285064],[114.117022,22.284615]]],[[[114.366805,22.266254],[114.366857,22.26731],[114.367474,22.266739],[114.366805,22.266254]]],[[[114.369818,22.264652],[114.370052,22.266172],[114.370702,22.264546],[114.369818,22.264652]]],[[[114.267344,22.53809],[114.267622,22.538589],[114.267778,22.538103],[114.267344,22.53809]]],[[[114.401909,22.433277],[114.401718,22.433978],[114.402265,22.433726],[114.401909,22.433277]]],[[[114.386502,22.402459],[114.385312,22.404132],[114.386771,22.403568],[114.386502,22.402459]]],[[[114.282066,22.38571],[114.282239,22.386539],[114.282707,22.386072],[114.282066,22.38571]]],[[[114.299184,22.379318],[114.29947,22.380254],[114.299582,22.379363],[114.299184,22.379318]]],[[[114.289982,22.375158],[114.28993,22.376258],[114.290851,22.375386],[114.289982,22.375158]]],[[[114.301579,22.370829],[114.301233,22.37206],[114.30197,22.371425],[114.301579,22.370829]]],[[[113.887681,22.351247],[113.88637,22.353588],[113.888627,22.353612],[113.887681,22.351247]]],[[[114.309826,22.307508],[114.30967,22.307845],[114.309843,22.307745],[114.309826,22.307508]]],[[[114.345398,22.262428],[114.345104,22.263246],[114.345694,22.262921],[114.345398,22.262428]]],[[[114.237143,22.174671],[114.236901,22.175876],[114.237812,22.175084],[114.237143,22.174671]]],[[[113.907393,22.173168],[113.907228,22.173743],[113.907662,22.173344],[113.907393,22.173168]]],[[[114.387716,22.405461],[114.387612,22.406026],[114.388003,22.405763],[114.387716,22.405461]]],[[[114.351675,22.34185],[114.351987,22.342905],[114.352335,22.342104],[114.351675,22.34185]]],[[[114.310086,22.309136],[114.310025,22.309539],[114.310225,22.309431],[114.310086,22.309136]]],[[[114.312421,22.300833],[114.312187,22.301164],[114.312526,22.301104],[114.312421,22.300833]]],[[[114.28434,22.525716],[114.284322,22.526285],[114.284687,22.526022],[114.28434,22.525716]]],[[[114.329791,22.323639],[114.329739,22.323819],[114.329895,22.323756],[114.329791,22.323639]]],[[[114.367647,22.264328],[114.367864,22.264715],[114.367959,22.264285],[114.367647,22.264328]]]]}}]}