{"type":"FeatureCollection","features":[{"type":"Feature","properties":{"id":"cn:82","name":"澳门特别行政区","level":0},"geometry":{"type":"MultiPolygon","coordinates":[[[[113.528165,22.182165],[113.535637,22.202304],[113.534943,22.213524],[113.550846,22.217034],[113.568648,22.208575],[113.570654,22.19725],[113.588071,22.165273],[113.59867,22.13535],[113.573921,22.111885],[113.549365,22.110229],[113.549553,22.145359],[113.539526,22.156998],[113.528165,22.182165]]],[[[113.571001,22.19748],[113.571107,22.204027],[113.581472,22.204058],[113.57894,22.196282],[113.571001,22.19748]]]]}},{"type":"Feature","properties":{"id":"cn:8200","name":"澳门特别行政区","level":1},"geometry":{"type":"MultiPolygon","coordinates":[[[[113.528165,22.182165],[113.535637,22.202304],[113.534943,22.213524],[113.550846,22.217034],[113.568648,22.208575],[113.570654,22.19725],[113.588071,22.165273],[113.59867,22.13535],[113.573921,22.111885],[113.549365,22.110229],[113.549553,22.145359],[113.539526,22.156998],[113.528165,22.182165]]],[[[113.571001,22.19748],[113.571107,22.204027],[113.581472,22.204058],[113.57894,22.196282],[113.571001,22.19748]]]]}},{"type":"Feature","properties":{"id":"cn:820000","name":"澳门特别行政区","level":2},"geometry":{"type":"MultiPolygon","coordinates":[[[[113.528165,22.182165],[113.535637,22.202304],[113.534943,22.213524],[113.550846,22.217034],[113.568648,22.208575],[113.570654,22.19725],[113.588071,22.165273],[113.59867,22.13535],[113.573921,22.111885],[113.549365,22.110229],[113.549553,22.145359],[113.539526,22.156998],[113.528165,22.182165]]],[[[113.571001,22.19748],[113.571107,22.204027],[113.581472,22.204058],[113.57894,22.196282],[113.571001,22.19748]]]]}}]}